# 1995  7  4 11 20 49.79  37.2910 -121.6713    5.47 2.65  0.09  0.32  0.04   30076454
NCCCO       1.440   1.000   P
NCCMH       2.580   1.000   P
NCCAO       2.740   1.000   P
NCCAO       4.910   0.100   S
NCJST       3.300   1.000   P
NCCAD       3.460   1.000   P
NCJNA       4.200   1.000   P
NCJNA       7.430   0.100   S
NCCML       4.250   1.000   P
NCCAL       4.200   1.000   P
NCCAL       7.660   0.100   S
NCJAL       4.450   1.000   P
NCHSP       4.790   1.000   P
NCCMM       4.750   1.000   P
NCJHL       5.040   1.000   P
NCJRR       5.300   1.000   P
NCJSS       5.360   1.000   P
NCJEC       5.880   1.000   P
NCJLX       5.770   1.000   P
NCHGW       5.900   1.000   P
NCCDV       5.940   1.000   P
NCCMJ       6.050   1.000   P
NCCMP       5.990   1.000   P
NCJBZ       6.750   1.000   P
NCJSG       6.970   1.000   P
NCJTG       6.970   1.000   P
NCJBC       6.890   1.000   P
NCCOS       6.750   1.000   P
NCCVA       7.240   1.000   P
NCJSJ       7.570   1.000   P
NCJPL       7.600   1.000   P
NCHCR       7.160   1.000   P
NCJRG       7.440   1.000   P
NCCVL       7.870   1.000   P
NCHCB       7.760   1.000   P
NCJSC       7.540   0.500   P
NCCST       8.160   1.000   P
NCJEL       8.400   0.500   P
NCJBM       8.060   1.000   P
NCHPL       7.750   1.000   P
NCHOR       8.210   0.500   P
NCCNI       8.200   1.000   P
NCHCO       8.700   0.500   P
NCJSM       8.600   1.000   P
NCHAZ       8.830   1.000   P
NCJSF       8.640   1.000   P
NCJUC       8.630   0.500   P
NCCCY       8.380   1.000   P
NCCCY      14.770   0.100   S
NCJJR       8.800   1.000   P
NCJMP       8.600   0.200   P
NCJBL       8.660   0.500   P
NCJPP       9.160   1.000   P
NCCDA       9.720   0.500   P
NCCGP       9.230   1.000   P
NCHBT       9.700   0.100   P
NCHDL       9.510   1.000   P
NCCDO      10.240   0.100   P
NCHPH      10.230   1.000   P
NCHER      10.190   0.500   P
NCHSF      10.820   0.500   P
NCHJG      10.320   1.000   P
NCHLT       9.910   0.200   P
NCCBS      11.300   0.200   P
NCJHP      10.490   1.000   P
NCJBG      10.910   0.500   P
NCHSL      10.960   0.500   P
NCCLC      11.210   0.200   P
NCJPS      11.050   0.500   P
NCHFP      11.410   0.500   P
NCHJS      11.400   0.500   P
NCCSL      11.310   0.200   P
NCBSL      11.980   0.200   P
NCBVY      12.190   0.500   P
NCJCP      11.580   1.000   P
NCJCH      11.640   0.200   P
NCCBR      12.800   0.500   P
NCCMC      12.770   0.200   P
NCBSR      12.580   1.000   P
NCBCG      13.160   0.100   P
NCBHR      13.050   0.100   P
NCJSA      12.680   0.500   P
NCJEG      12.630   0.200   P
NCJSB      13.120   0.200   P
NCBLR      14.690   0.200   P
NCHMO      13.880   0.500   P
NCBPC      14.200   0.200   P
NCCBW      14.700   0.200   P
NCJSP      13.520   0.200   P
NCJMG      13.720   0.100   P
NCCVP      14.790   0.100   P
NCBJO      14.570   0.500   P
NCBEH      14.700   0.200   P
NCCYB      14.390   0.200   P
NCBJC      14.980   0.200   P
NCBEM      15.170   0.100   P
NCBRM      16.130   0.100   P
NCBVL      16.310   0.100   P
NCJPR      15.530   0.500   P
NCCPI      16.560   1.000   P
NCBAV      16.360   0.200   P
NCCSP      16.900   0.500   P
NCCPM      16.670   0.100   P
NCBPR      16.880   1.000   P
NCBPI      17.020   1.000   P
NCNMI      18.640   1.000   P
NCBBN      18.310   0.500   P
NCBSG      17.850   1.000   P
NCBMS      18.420   1.000   P
NCBCW      18.920   1.000   P
NCMYL      18.650   1.000   P
NCBRV      19.670   1.000   P
NCNHF      18.960   0.200   P
NCBPO      19.970   0.200   P
NCMCU      20.130   1.000   P
NCMNH      20.010   0.500   P
NCBAP      20.740   0.200   P
NCMBO      20.150   1.000   P
NCPLO      21.450   0.200   P
NCPAP      25.180   0.500   P
# 1995 12 15 18 53 39.81  37.2890 -121.6693    3.71 1.82  0.14  0.42  0.04   30092060
NCCCO       1.430  -1.000   P
NCCMH       2.650   0.500   P
NCCAO       2.760   1.000   P
NCCAD       3.430   1.000   P
NCJST       3.310   0.500   P
NCJCB       4.220   1.000   P
NCJNA       4.210   1.000   P
NCCML       4.330   1.000   P
NCCAL       4.280   1.000   P
NCJAL       4.470   1.000   P
NCHSP       4.760   1.000   P
NCCMM       4.800   1.000   P
NCJHL       5.060   1.000   P
NCJRR       5.300   1.000   P
NCJSS       5.400   1.000   P
NCHGS       5.520   1.000   P
NCJEC       5.870   0.500   P
NCJLX       5.870   1.000   P
NCHGW       5.840   0.200   P
NCCDV       6.020   1.000   P
NCCMJ       6.160   0.500   P
NCCMP       6.000   1.000   P
NCHCA       7.060   1.000   P
NCJSG       7.020   1.000   P
NCJBC       6.780   0.200   P
NCCVA       7.310   1.000   P
NCHCR       7.120   1.000   P
NCJSJ       7.650   0.200   P
NCCVL       8.000   1.000   P
NCCST       8.290   1.000   P
NCJBM       8.140   1.000   P
NCJSF       8.690   0.500   P
NCJPP       8.790   0.200   P
NCCGP       9.430   1.000   P
NCHDL       9.500   1.000   P
NCHJG      10.400   0.500   P
NCJHP      10.590   0.200   P
NCHFP      11.630   1.000   P
NCBVY      12.330   0.200   P
NCBSR      12.600   0.500   P
NCBPC      14.360   0.500   P
NCBJO      14.840   0.500   P
NCBJC      15.020   0.200   P
NCBPR      17.900   0.200   P
NCMYL      17.850   0.100   P
NCPMC      35.550   0.200   P
# 1996  9  2 20 27  0.36  37.2907 -121.6703    4.06 1.99  0.10  0.36  0.05     478138
NCCCO       1.420   0.500   P
NCCCO       2.840   0.100   S
NCCMH       2.630   1.000   P
NCCAO       2.730   1.000   P
NCCAO       4.900   0.100   S
NCCAD       3.440   0.500   P
NCJST       3.300   1.000   P
NCJLA       3.610   1.000   P
NCCML       4.300   1.000   P
NCCAL       4.260   1.000   P
NCCAL       7.760   0.100   S
NCJAL       4.460   1.000   P
NCHSP       4.740   1.000   P
NCCMM       4.470   0.100   P
NCJHL       5.040   1.000   P
NCJUM       5.040   0.500   P
NCHGS       5.530   1.000   P
NCJLX       5.810   1.000   P
NCCDV       5.990   1.000   P
NCCMJ       6.090   1.000   P
NCCMP       5.990   1.000   P
NCCMW1      6.490   0.200   P
NCHCA       6.840   0.200   P
NCCMR       6.520   1.000   P
NCJTG       6.960   0.500   P
NCJBC       6.890   0.500   P
NCCOS       6.770   0.500   P
NCCVA       7.290   1.000   P
NCJPL       7.460   0.100   P
NCHCR       7.110   0.500   P
NCJRG       7.380   0.100   P
NCCVL       7.870   0.500   P
NCHCB       7.740   0.200   P
NCJSC       7.630   0.200   P
NCHFE       7.540   0.100   P
NCJBM       8.090   0.500   P
NCHOR       8.460   0.200   P
NCCNI       8.360   0.100   P
NCJSM       8.610   0.200   P
NCJSF       8.670   0.500   P
NCJUC       8.900   0.500   P
NCJBN       8.720   0.100   P
NCCCY       8.430   0.500   P
NCJBL       8.830   0.500   P
NCJPP       9.150   0.500   P
NCHDL       9.570   0.100   P
NCHSF      10.780   0.200   P
NCHJG      10.400   1.000   P
NCCBS      11.440   0.500   P
NCJHP      10.560   1.000   P
NCJBG      10.980   0.500   P
NCHSL      10.920   0.200   P
NCCLC      12.030   0.500   P
NCJPS      11.050   0.200   P
NCCCH1     11.570   0.100   P
NCBVY      12.340   0.200   P
NCJCH      11.680   0.100   P
NCCBR      12.990   0.100   P
NCBSR      12.810   1.000   P
NCJSB      13.100   0.200   P
NCBPC      14.350   1.000   P
NCHMO      14.090   0.500   P
NCJSP      13.960   0.100   P
NCJMG      14.400   0.500   P
NCBJO      14.910   0.500   P
NCBJC      15.230   0.200   P
NCNRL      16.770   1.000   P
NCCPM      16.860   0.100   P
NCBPR      16.990   0.100   P
NCBBN      18.900   0.200   P
NCNHF      19.370   0.200   P
# 1996  9  2 20 36  3.96  37.2922 -121.6692    3.88 1.38  0.25  1.67  0.06     478141
NCCMH       2.550  -0.500   P
NCCAO       4.850   0.100   S
NCCAO       2.710  -1.000   P
NCCAD       3.690   0.200   P
NCJST       3.300   0.500   P
NCJLA       3.590   1.000   P
NCCML       4.270  -1.000   P
NCCAL       4.230   0.500   P
NCJAL       4.440   0.500   P
NCHSP       4.740   0.500   P
NCCMM       4.320   0.100   P
NCJHL       5.030   1.000   P
NCHGS       5.530   0.500   P
NCJLX       5.860   0.100   P
NCCDV       5.930   0.500   P
NCCMJ       6.080   0.200   P
NCCMP       5.980   0.500   P
NCHCA       6.990   0.500   P
NCCCY       8.520   0.200   P
# 1996  9  3  0  2  4.94  37.2902 -121.6673    4.99 1.17  0.27  1.31  0.05     478159
NCCMH       2.660  -0.500   P
NCCAO       2.700  -0.500   P
NCCAO       4.830   0.100   S
NCCAD       3.280   0.100   P
NCJST       3.290   0.500   P
NCJST       5.940   0.100   S
NCJLA       3.580   0.500   P
NCCML       4.270  -1.000   P
NCCAL       4.240   0.500   P
NCJAL       4.330   0.200   P
NCHSP       4.700   0.200   P
NCJHL       5.000   0.500   P
NCHGS       5.450   0.500   P
NCCDV       5.930   0.500   P
NCCMP       5.950   0.200   P
# 1997 10 28 12  1 44.75  37.2893 -121.6692    3.68 1.61  0.12  0.29  0.05     529274
NCCCO       1.400  -1.000   P
NCCMH       2.670   1.000   P
NCCAO       4.890   0.100   S
NCCAO       2.760   1.000   P
NCCAD       3.430   0.500   P
NCJST       3.320   1.000   P
NCJLA       3.600   1.000   P
NCCML       4.320   1.000   P
NCCAL       7.810   0.100   S
NCCAL       4.290   1.000   P
NCJAL       4.450   1.000   P
NCHSP       4.750   1.000   P
NCJHL       5.050   1.000   P
NCJUM       5.070   0.500   P
NCJSS       5.390   0.500   P
NCHGS       5.550   0.500   P
NCJEC       5.850   1.000   P
NCJLX       5.820   0.500   P
NCCDV       6.040   1.000   P
NCCMJ       6.140   0.500   P
NCCMP       5.980   0.500   P
NCJBZ       6.750   0.500   P
NCHCA       6.850   0.200   P
NCJBC       6.910   0.200   P
NCCOS       6.710   0.100   P
NCCVA       7.260   0.500   P
NCJPL       7.680   0.200   P
NCHCR       7.100   0.500   P
NCCMN       7.370   0.200   P
NCJSJ       7.630   0.200   P
NCHCB       7.630   0.100   P
NCJSC       7.590   0.500   P
NCHFE       7.720   0.100   P
NCCST       8.260   0.500   P
NCJBM       8.120   0.200   P
NCHPC       7.920   0.500   P
NCCNI       8.290   0.200   P
NCHCO       8.690   0.100   P
NCJBN       8.740   0.100   P
NCCCY       8.460   0.200   P
NCJJR       8.890   0.100   P
NCJPP       9.220   0.500   P
NCCGP       9.300   0.200   P
NCHDL       9.450   0.100   P
NCHJG      10.320   0.100   P
NCJHP      10.520   0.500   P
NCJBG      11.070   0.100   P
NCCLC      11.400   0.100   P
NCJPS      10.980   0.100   P
NCHFP      11.430   0.100   P
NCHJS      11.380   0.100   P
NCBSR      12.590   0.200   P
NCJMG      14.450   0.200   P
