# 1987  7  7  1 44 26.99  37.2935 -121.6720    3.27 1.01  0.21  0.45  0.02     102776
NCCCO       1.480  -1.000   P
NCCSC       2.640  -1.000   P
NCCMH       2.580   0.500   P
NCCAO       2.760   1.000   P
NCCAO       5.020   0.100   S
NCJST       3.330   1.000   P
NCJST       5.980   0.200   S
NCJCB       4.270   1.000   P
NCCML       4.240   0.100   P
NCJAL       4.490   0.200   P
NCCMM       4.760   1.000   P
NCHSP       4.820   1.000   P
NCJRR       5.340   0.100   P
NCHGS       5.580   0.100   P
NCCDV       5.950   0.500   P
# 1987  7 14 19  2 57.02  37.2890 -121.6695    3.60 1.72  0.13  0.34  0.04     103138
NCCCO       1.440  -1.000   P
NCCSC       2.660   1.000   P
NCCMH       2.660   1.000   P
NCCAO       2.760   1.000   P
NCCAD       3.470   0.100   P
NCJST       3.330   1.000   P
NCJCB       4.230   1.000   P
NCCML       4.330   1.000   P
NCCAL       4.280   1.000   P
NCJAL       4.490   1.000   P
NCHSP       4.780   1.000   P
NCCMM       4.790   1.000   P
NCJRR       5.300   1.000   P
NCJSS       5.410   0.500   P
NCHGS       5.530   1.000   P
NCJEC       5.910   1.000   P
NCJLX       5.860   0.100   P
NCHGW       5.890   1.000   P
NCCDV       6.000   1.000   P
NCCMP       6.010   1.000   P
NCJBZ       6.740   0.500   P
NCCMR       6.550   1.000   P
NCJTG       6.800   0.100   P
NCCVA       7.310   0.100   P
NCHCR       7.130   0.100   P
NCJSC       7.700   0.100   P
NCCST       8.330   1.000   P
NCHPL       7.800   0.100   P
NCJBM       8.130   0.100   P
NCHCP       8.100   0.500   P
NCJSM       8.660   0.100   P
NCJUC       9.530   0.200   P
NCJBL       8.870   0.200   P
NCJPP       9.220   0.100   P
NCHDL       9.480   1.000   P
NCJHP      10.580   0.100   P
NCJBG      11.070   0.100   P
NCCLC      11.930   0.100   P
NCHFP      11.560   0.100   P
NCBVY      12.330   0.100   P
NCBSR      12.900   0.500   P
NCJMG      14.810   0.500   P
NCBJO      14.700   0.100   P
NCBJC      15.190   0.100   P
# 1988  1 15  1 56 42.31  37.2913 -121.6727    3.20 1.39  0.17  0.40  0.04     110939
NCCCO       1.430  -1.000   P
NCCSC       2.610   1.000   P
NCCMH       2.610   1.000   P
NCCAO       2.760   1.000   P
NCCAO       4.940   0.500   S
NCJST       3.320   0.500   P
NCCAD       3.610   0.500   P
NCJCB       4.250   1.000   P
NCCAL       4.260   0.500   P
NCJAL       4.480   1.000   P
NCHSP       4.810   1.000   P
NCCMM       4.850   1.000   P
NCJHL       5.080   1.000   P
NCJRR       5.310   1.000   P
NCJEC       5.890   0.100   P
NCHGS       5.570   0.200   P
NCCDV       5.990   1.000   P
NCCMP       6.030   0.200   P
NCJSG       7.030   0.500   P
NCCMR       6.520   1.000   P
NCHCA       7.070   0.500   P
NCJTG       6.990   0.200   P
NCHCR       7.210   0.500   P
NCJSC       7.740   0.200   P
NCCST       8.300   1.000   P
NCCCY       8.570   0.100   P
NCCCY      14.850   0.100   S
# 1988  2 25 10  0 17.78  37.2920 -121.6723    4.24 0.92  0.19  0.45  0.03     112868
NCCCO       1.570  -1.000   P
NCCSC       2.590   0.500   P
NCCMH       2.590   0.500   P
NCCAO       2.730   1.000   P
NCCAO       4.900   0.200   S
NCJST       3.330   0.500   P
NCCAD       3.530   0.200   P
NCJCB       4.240   1.000   P
NCCML       4.260   1.000   P
NCCAL       4.190   1.000   P
NCJAL       4.470   1.000   P
NCHSP       4.800   1.000   P
NCCMM       4.750   1.000   P
NCJHL       5.050   1.000   P
NCJSS       5.370   0.200   P
NCJRR       5.310   1.000   P
NCJEC       5.870   0.500   P
NCHGS       5.550   0.500   P
NCCDV       5.940   1.000   P
NCHGW       5.920   0.500   P
NCJBZ       6.720   0.200   P
NCJSG       6.940   0.500   P
NCJBC       6.870   0.500   P
NCHCR       7.160   0.500   P
NCJPP       9.160   0.500   P
NCHFP      11.610   0.200   P
NCHMO      15.030   1.000   P
# 1988  7 23 10 42 21.74  37.2907 -121.6717    3.67 1.53  0.15  0.34  0.03     120788
NCCCO       1.470  -1.000   P
NCCSC       2.620   0.500   P
NCCMH       2.630   1.000   P
NCCAO       2.760   1.000   P
NCCAO       4.920   0.100   S
NCJST       3.280   0.200   P
NCCAD       3.480   1.000   P
NCJCB       4.270   0.500   P
NCCML       4.310   1.000   P
NCCAL       4.260   1.000   P
NCHSP       4.810   1.000   P
NCCMM       4.780   1.000   P
NCJHL       5.070   1.000   P
NCJRR       5.320   1.000   P
NCJSS       5.390   0.500   P
NCJEC       5.890   0.500   P
NCHGS       5.560   0.200   P
NCHGW       5.920   1.000   P
NCCDV       5.960   1.000   P
NCCMJ       6.080   0.500   P
NCCMP       6.030   0.500   P
NCHCA       6.900   0.100   P
NCCMR       6.540   1.000   P
NCJTG       6.990   0.200   P
NCCVA       7.270   0.500   P
NCJSJ       7.620   0.500   P
NCHCR       7.170   0.500   P
NCJRG       7.490   0.200   P
NCJSC       7.650   0.200   P
NCCST       8.260   0.500   P
NCHPL       7.840   0.200   P
NCJPP       9.150   0.200   P
NCHDL       9.420   0.100   P
NCHJG      10.340   0.200   P
NCJHP      10.520   0.500   P
NCHFP      11.500   0.100   P
NCBSR      12.630   0.100   P
NCBPC      14.420   1.000   P
# 1988 11  2  3  9 12.61  37.2893 -121.6705    3.87 1.93  0.10  0.26  0.05     126189
NCCCO       1.460  -1.000   P
NCCSC       2.640   0.500   P
NCCMH       2.670   1.000   P
NCCAO       2.760   1.000   P
NCCAD       3.470   0.500   P
NCJST       3.330   0.500   P
NCJCB       4.240   0.500   P
NCCML       4.320   0.500   P
NCCAL       4.290   1.000   P
NCJAL       3.950   0.200   P
NCHSP       4.790   1.000   P
NCCMM       4.790   1.000   P
NCJHL       5.070   1.000   P
NCJRR       5.310   1.000   P
NCJSS       5.410   0.500   P
NCHGS       5.540   0.500   P
NCJEC       5.880   0.500   P
NCJLX       5.840   0.500   P
NCHGW       5.900   0.500   P
NCCDV       5.980   0.500   P
NCCMJ       6.120   0.500   P
NCCMP       6.020   0.500   P
NCJBZ       6.770   0.500   P
NCHCA       6.650   0.100   P
NCJSG       7.030   1.000   P
NCCMR       6.540   0.500   P
NCJTG       6.970   0.200   P
NCJBC       6.930   0.500   P
NCCOS       6.800   0.500   P
NCCVA       7.320   0.500   P
NCHPR       7.430   1.000   P
NCHCR       7.140   0.500   P
NCJSJ       7.640   0.500   P
NCCMN       7.360   0.500   P
NCJQW       7.560   0.100   P
NCHCB       7.750   0.200   P
NCCVL       7.890   0.200   P
NCJSC       7.680   0.200   P
NCHFE       7.650   1.000   P
NCCST       8.310   0.500   P
NCCSA       8.370   0.200   P
NCHPL       7.810   0.500   P
NCJBM       8.130   1.000   P
NCHCO       8.670   0.100   P
NCJSM       8.640   0.500   P
NCHAZ       8.850   0.500   P
NCCPL       8.550   0.100   P
NCJUC       8.890   0.100   P
NCJSF       8.700   0.500   P
NCJBL       8.800   0.100   P
NCHFH       9.350   0.500   P
NCHKR       9.550   0.100   P
NCJPP       9.200   0.500   P
NCHBT      10.060   0.500   P
NCHDL       9.470   0.200   P
NCHSF      11.260   1.000   P
NCHJG      10.300   0.500   P
NCJHP      10.560   0.500   P
NCJBG      11.260   0.200   P
NCCLC      12.080   0.200   P
NCJPS      11.720   0.500   P
NCHFP      11.580   0.200   P
NCBVY      12.380   1.000   P
NCJSA      13.020   0.100   P
NCJEG      13.320   0.200   P
NCBPC      14.410   1.000   P
NCBSC      14.930   0.200   P
NCJMG      14.430   0.200   P
NCBJO      14.750   0.100   P
NCBJC      15.400   1.000   P
NCCAI      16.230   1.000   P
NCBBG      17.910   1.000   P
NCBAP      21.600   0.500   P
# 1988 11  3  1 30  4.28  37.2888 -121.6697    3.64 1.71  0.13  0.31  0.03     126292
NCCCO       1.430  -1.000   P
NCCSC       2.660   0.500   P
NCCMH       2.650   0.500   P
NCCAO       2.760   1.000   P
NCCAO       4.930   0.100   S
NCCAD       3.450   0.500   P
NCJST       3.330   0.500   P
NCJCB       4.230   1.000   P
NCCML       4.340   1.000   P
NCCAL       4.300   0.500   P
NCCAL       7.840   0.100   S
NCJAL       4.490   1.000   P
NCHSP       4.770   1.000   P
NCCMM       4.810   1.000   P
NCJHL       5.070   1.000   P
NCJRR       5.300   1.000   P
NCJSS       5.400   0.500   P
NCHGS       5.520   1.000   P
NCJEC       5.860   1.000   P
NCJLX       5.870   0.100   P
NCHGW       5.890   0.500   P
NCCDV       6.020   1.000   P
NCCMJ       6.120   0.200   P
NCCMP       6.000   1.000   P
NCJBZ       6.760   1.000   P
NCHCA       7.030   0.500   P
NCJSG       7.040   0.200   P
NCCMR       6.560   1.000   P
NCJBC       6.940   0.200   P
NCHPR       7.420   0.500   P
NCCVA       7.320   0.500   P
NCHCR       7.130   0.500   P
NCCMN       7.370   0.500   P
NCJSJ       7.630   0.200   P
NCJRG       7.360   0.100   P
NCHCB       7.770   0.100   P
NCCST       8.300   0.500   P
NCHPL       7.780   0.500   P
NCJBM       8.150   0.200   P
NCHCO       8.260   0.100   P
NCJSM       8.660   0.500   P
NCHKR       9.400   0.200   P
NCJPP       9.220   0.500   P
NCHDL       9.480   0.200   P
NCHJG      10.290   0.200   P
NCJHP      10.650   0.200   P
NCJPS      11.190   0.200   P
NCHFP      11.450   0.100   P
NCBVY      12.200   0.200   P
NCHQR      11.720   0.100   P
NCJSA      13.220   0.100   P
NCJMG      14.440   0.200   P
# 1988 11  4 13 34 34.72  37.2882 -121.6703    4.06 1.87  0.10  0.30  0.05     126389
NCCCO       1.430  -1.000   P
NCCSC       2.650   1.000   P
NCCMH       2.670   1.000   P
NCCAO       2.750   1.000   P
NCCAO       4.910   0.100   S
NCCAD       3.450   1.000   P
NCJST       3.320   1.000   P
NCJCB       4.210   1.000   P
NCCML       4.330   1.000   P
NCCAL       4.290   1.000   P
NCJAL       4.470   0.500   P
NCHSP       4.760   1.000   P
NCCMM       4.790   1.000   P
NCJHL       5.050   1.000   P
NCJRR       5.280   1.000   P
NCJSS       5.390   0.500   P
NCHGS       5.510   1.000   P
NCJEC       5.860   0.500   P
NCJLX       5.770   0.500   P
NCHGW       5.880   1.000   P
NCCDV       6.010   1.000   P
NCCMJ       6.120   1.000   P
NCCMP       5.990   1.000   P
NCJBZ       5.730   0.100   P
NCHCA       6.620   0.200   P
NCJSG       7.020   1.000   P
NCCMR       6.550   1.000   P
NCJBC       6.900   1.000   P
NCHPR       7.410   1.000   P
NCJPL       7.640   0.500   P
NCCVA       7.330   0.500   P
NCHCR       7.090   1.000   P
NCJSJ       7.620   0.500   P
NCCMN       7.330   0.500   P
NCJQS       7.620   0.500   P
NCJQB       7.630   0.500   P
NCHCB       7.720   0.500   P
NCJQW       7.740   1.000   P
NCCVL       7.940   0.500   P
NCJSC       7.670   0.500   P
NCHFE       7.590   0.500   P
NCCST       8.300   1.000   P
NCHPL       7.780   1.000   P
NCJBM       8.110   1.000   P
NCHOR       8.340   0.200   P
NCHCO       8.670   1.000   P
NCJSM       8.630   0.500   P
NCHAZ       8.800   0.200   P
NCJUC       8.770   0.200   P
NCJSF       8.690   1.000   P
NCCPL       8.640   0.200   P
NCJTR       8.750   1.000   P
NCJBL       8.680   0.500   P
NCHFH       9.410   0.100   P
NCJPP       9.190   1.000   P
NCHDL       9.420   0.500   P
NCCDO      10.580   0.200   P
NCHJG      10.270   0.200   P
NCJHP      10.560   1.000   P
NCCBS      11.520   0.200   P
NCJBG      11.000   0.500   P
NCCLC      11.390   1.000   P
NCJPS      11.470   0.200   P
NCHFP      11.370   0.200   P
NCHJS      11.590   0.500   P
NCBVY      12.210   0.500   P
NCBSR      12.590   0.200   P
NCJSA      12.930   0.100   P
NCJEG      13.140   0.100   P
NCBPC      14.330   0.500   P
NCJMG      14.250   0.200   P
NCBJO      14.640   0.200   P
NCBJC      15.100   0.200   P
NCCAI      16.150   0.200   P
NCBBG      17.650   0.100   P
# 1989 12 13  5 33 46.08  37.2875 -121.6682    3.81 1.60  0.15  0.51  0.06     148939
NCCCO       1.410   0.500   P
NCCSC       2.630   0.500   P
NCCMH       2.640   0.500   P
NCCAO       2.730   1.000   P
NCCAD       3.440   1.000   P
NCJST       3.300   0.500   P
NCJCB       4.200   1.000   P
NCJNA       4.190   1.000   P
NCCML       4.320   1.000   P
NCJAL       4.440   0.200   P
NCCAL       4.270   0.500   P
NCHSP       4.730   1.000   P
NCCMM       4.770   1.000   P
NCJHL       5.040   1.000   P
NCJUM       5.060   0.200   P
NCJRR       5.280   1.000   P
NCJSS       5.390   0.200   P
NCHGS       5.490   0.200   P
NCJEC       5.860   0.200   P
NCJLX       5.800   0.200   P
NCHGW       5.860   1.000   P
NCCDV       6.010   0.500   P
NCCMJ       6.110   0.500   P
NCCMP       5.980   0.200   P
NCJBZ       6.730   0.500   P
NCHCA       6.840   1.000   P
NCJSG       6.990   0.200   P
NCCMR       6.540   0.500   P
NCJTG       7.170   0.200   P
NCJBC       6.900   0.200   P
NCHCR       7.120   1.000   P
NCCVA       7.300   0.200   P
NCCMN       7.510   1.000   P
NCJSJ       7.680   1.000   P
NCJRG       7.960   0.500   P
NCCST       8.290   0.500   P
NCHOR       8.360   0.100   P
NCJBM       8.100   0.200   P
NCHCO       8.600   1.000   P
NCJSM       8.730   0.200   P
NCJUC       8.680   0.100   P
NCJSF       8.910   0.200   P
NCCCY       8.600   1.000   P
NCHFH       9.330   0.500   P
NCJPP       9.260   1.000   P
NCHDL       7.430   0.100   P
NCBVY      12.300   0.200   P
NCBSR      12.600   1.000   P
NCBPC      14.250   0.500   P
NCBJC      15.170   1.000   P
# 1990  5 23 11 11 37.58  37.2922 -121.6722    3.48 1.03  0.21  0.71  0.03     158154
NCCCO       1.490  -0.500   P
NCCSC       2.620   0.500   P
NCCMH       2.590   0.500   P
NCCAO       2.760   1.000   P
NCCAO       4.930   0.200   S
NCJST       3.340   0.500   P
NCCAD       3.580   0.200   P
NCJNA       4.200   0.500   P
NCJCB       4.260   1.000   P
NCCML       4.270   1.000   P
NCCAL       4.210   0.500   P
NCJAL       4.460   1.000   P
NCHSP       4.820   1.000   P
NCCMM       4.760   0.500   P
NCJHL       5.060   1.000   P
NCJSS       5.400   0.500   P
NCJRR       5.280   0.200   P
NCHGS       5.570   0.500   P
NCJLX       5.800   0.500   P
# 1990  7  5 20  4 42.81  37.2902 -121.6693    3.72 1.71  0.13  0.38  0.04     160503
NCCCO       1.450  -1.000   P
NCCSC       2.640   0.200   P
NCCMH       2.640   0.500   P
NCCAO       2.750   1.000   P
NCCAD       3.450   1.000   P
NCJST       3.370   1.000   P
NCJCB       4.230   1.000   P
NCJNA       4.210   0.500   P
NCCML       4.300   1.000   P
NCCAL       4.260   1.000   P
NCJAL       4.470   1.000   P
NCHSP       4.770   1.000   P
NCCMM       4.770   1.000   P
NCJHL       5.050   1.000   P
NCJRR       5.350   1.000   P
NCJSS       5.380   0.500   P
NCHGS       5.530   1.000   P
NCJEC       5.880   1.000   P
NCJLX       5.800   0.500   P
NCHGW       5.880   1.000   P
NCCDV       5.980   1.000   P
NCCMJ       6.100   1.000   P
NCCMP       5.990   1.000   P
NCHCA       6.640   0.200   P
NCJSG       6.990   0.200   P
NCJBC       6.920   1.000   P
NCCOS       6.680   0.200   P
NCCVA       7.220   0.500   P
NCJPL       7.440   1.000   P
NCHCR       7.130   0.500   P
NCCVL       8.070   0.500   P
NCJSC       7.650   0.200   P
NCHFE       7.740   0.100   P
NCCST       8.290   0.500   P
NCHPL       7.790   0.500   P
NCJBM       8.090   0.200   P
NCHAZ       8.930   0.200   P
NCJSF       8.660   0.200   P
NCCCY       8.600   0.500   P
NCHFH       9.830   0.200   P
NCJPP       9.220   0.500   P
NCHDL       9.410   0.200   P
NCJHP      10.530   0.200   P
NCHFP      11.510   0.200   P
NCBVY      12.390   1.000   P
NCBSR      12.710   0.500   P
NCBJC      15.430   0.500   P
# 1991  1 20  5  0 30.93  37.2908 -121.6705    3.35 1.17  0.22  0.33  0.04     205031
NCCCO       1.440  -1.000   P
NCCSC       2.640   0.500   P
NCCMH       2.630  -1.000   P
NCCAO       2.770   0.500   P
NCCAO       4.940   0.100   S
NCCAD       3.480   0.500   P
NCJST       3.350   0.500   P
NCJCB       4.260   1.000   P
NCCML       4.310   0.200   P
NCCAL       4.250   0.200   P
NCHSP       4.800   0.500   P
NCJRR       5.330   1.000   P
NCHGS       5.560   0.500   P
NCHGW       5.910   0.500   P
NCCMJ       6.120   0.200   P
NCJSG       6.970   0.500   P
NCHPR       7.500   0.500   P
NCJSJ       7.660   0.200   P
NCHCR       7.150   0.200   P
NCCST       8.310   0.500   P
NCHPL       7.840   0.500   P
NCCCY       8.570   0.500   P
NCJPP       9.220   0.200   P
# 1991  3 22 11 23 27.56  37.2920 -121.6697    3.69 1.05  0.26  0.56  0.04     208364
NCCCO       1.490  -0.500   P
NCCSC       2.650   0.200   P
NCCMH       2.580   0.500   P
NCCAO       2.750   0.500   P
NCCAO       4.940   0.100   S
NCCAD       3.600   0.100   P
NCJST       3.350   0.200   P
NCJNA       4.200   0.200   P
NCJCB       4.270   1.000   P
NCCAL       4.220  -1.000   P
NCJAL       4.490   0.500   P
NCHSP       4.820   0.500   P
NCJHL       5.060   0.500   P
NCJRR       5.330   0.500   P
NCJSS       5.390   0.500   P
NCHGS       5.580   0.500   P
NCHGW       5.930   0.500   P
NCJSG       6.970   0.100   P
NCHCR       7.170   1.000   P
NCCCY       8.550   0.500   P
NCJPP       9.300   0.500   P
NCHDL       9.590   0.500   P
# 1991  5 29  9 45 22.62  37.2885 -121.6700    3.82 1.83  0.11  0.30  0.04     215747
NCCCO       1.420  -1.000   P
NCCSC       2.660   0.200   P
NCCMH       2.660   0.500   P
NCCAO       2.750   1.000   P
NCCAO       4.900   0.200   S
NCCAD       3.420   1.000   P
NCJST       3.300   1.000   P
NCJCB       4.210   1.000   P
NCJNA       4.200   0.500   P
NCCML       4.330   1.000   P
NCCAL       4.290   1.000   P
NCJAL       4.460   0.500   P
NCHSP       4.740   1.000   P
NCCMM       4.820   1.000   P
NCJHL       5.040   1.000   P
NCJUM       5.080   0.500   P
NCJRR       5.280   1.000   P
NCHGS       5.510   1.000   P
NCJEC       5.860   0.200   P
NCJLX       5.820   1.000   P
NCHGW       5.860   1.000   P
NCCDV       6.010   1.000   P
NCCMJ       6.110   0.500   P
NCCMP       6.000   0.500   P
NCJBZ       6.730   0.500   P
NCHCA       7.060   1.000   P
NCCMR       6.560   0.500   P
NCJTG       6.970   0.500   P
NCJBC       6.920   1.000   P
NCCVA       7.280   0.500   P
NCJPL       7.580   0.200   P
NCHCR       7.110   0.500   P
NCJRG       7.440   0.200   P
NCHCB       7.720   0.500   P
NCJSC       7.630   0.200   P
NCHFE       8.070   0.500   P
NCCST       8.290   0.500   P
NCHPL       7.760   0.500   P
NCJBM       8.130   0.200   P
NCHOR       8.420   0.100   P
NCHCO       8.740   0.100   P
NCJSM       8.640   0.500   P
NCJSF       8.690   0.500   P
NCCCY       8.460   0.200   P
NCJJR       9.700   0.200   P
NCJPP       9.220   0.200   P
NCHDL       9.460   0.500   P
NCHJG      10.270   0.200   P
NCJHP      10.560   0.500   P
NCCLC      11.540   0.200   P
NCJPS      11.700   0.200   P
NCHFP      11.540   0.100   P
NCHJS      11.350   0.200   P
NCBVY      12.230   0.200   P
NCBSR      12.560   0.200   P
NCJSA      12.820   0.100   P
NCBPC      14.340   0.200   P
NCBJC      15.110   0.200   P
NCBEM      15.540   0.200   P
NCBVL      16.140   0.200   P
NCCAI      16.100   1.000   P
# 1991  8 10 17  6  5.75  37.2905 -121.6698    3.42 1.23  0.23  0.37  0.03     227435
NCCCO       1.430  -1.000   P
NCCSC       2.750   0.200   P
NCCMH       2.630   0.200   P
NCCAO       2.750   0.500   P
NCCAO       4.920   0.100   S
NCCAD       3.470   0.500   P
NCJST       3.370   0.500   P
NCJCB       4.240   1.000   P
NCJNA       4.210   0.200   P
NCCML       4.300  -1.000   P
NCCAL       4.230   0.500   P
NCJAL       4.460   0.500   P
NCHSP       4.790   0.500   P
NCJHL       5.050   1.000   P
NCJRR       5.310   1.000   P
NCJSS       5.380   0.500   P
NCHGS       5.530   0.500   P
NCJLX       5.840   0.500   P
NCCDV       5.990   0.500   P
NCCMJ       6.130   0.200   P
NCCMP       5.980   0.500   P
NCHCA       7.050   0.500   P
NCHOR       9.010   0.100   P
NCCCY       8.520   0.200   P
