# 1984  4 25  4 35 19.17  37.2883 -121.6688    3.73 1.90  0.10  0.29  0.04      17842
NCCCO       1.430  -1.000   P
NCCSC       2.660   0.500   P
NCCMH       2.660   0.500   P
NCCAO       2.730   1.000   P
NCCAD       3.420   0.500   P
NCJST       3.350   0.500   P
NCJST       6.020   0.100   S
NCJCB       4.210   0.500   P
NCCML       4.330   0.500   P
NCCML       7.980   0.100   S
NCCAL       4.280   0.500   P
NCJAL       4.470   0.500   P
NCHSP       4.750   1.000   P
NCCMM       4.780   1.000   P
NCJHL       5.050   1.000   P
NCJSS       5.390   0.100   P
NCHGS       5.500   1.000   P
NCJEC       5.870   0.100   P
NCJLX       5.820   0.500   P
NCHGW       5.880   1.000   P
NCCDV       6.010   0.500   P
NCCMJ       6.200   1.000   P
NCCMP       6.030   1.000   P
NCJBZ       7.100   0.200   P
NCHCA       7.030   1.000   P
NCJSG       7.180   0.200   P
NCCMR       6.550   0.500   P
NCJTG       7.010   0.500   P
NCJBC       6.940   1.000   P
NCCVA       7.290   0.100   P
NCHCR       7.120   1.000   P
NCJSJ       7.650   1.000   P
NCJRG       7.530   0.100   P
NCCVL       7.980   1.000   P
NCHFE       7.620   0.200   P
NCCST       8.290   1.000   P
NCHPL       7.750   1.000   P
NCJBM       8.170   0.500   P
NCHOR       8.450   0.200   P
NCHCO       8.780   0.500   P
NCJSM       8.860   0.100   P
NCJUC       8.930   0.200   P
NCJSF       8.710   0.500   P
NCJBL       9.220   0.100   P
NCHFH       9.260   0.200   P
NCJLT       8.940   0.100   P
NCHKR       9.730   0.500   P
NCJPP       9.370   0.500   P
NCHDL       9.510   1.000   P
NCHSF      10.960   0.100   P
NCHJG      10.370   0.200   P
NCJHP      10.620   1.000   P
NCHFP      11.540   0.100   P
NCBSL      14.300   0.500   P
NCBVY      12.330   0.500   P
NCHQR      12.290   0.200   P
NCBSR      12.680   1.000   P
NCBHR      14.160   0.200   P
NCJSA      12.990   0.500   P
NCJMG      14.460   0.200   P
NCBJO      14.890   0.200   P
NCCAI      16.230   0.200   P
# 1984  4 27  7 48 23.50  37.2942 -121.6720    3.16 0.97  0.23  0.44  0.04      16751
NCCCO       1.460  -1.000   P
NCCSC       2.590   0.200   P
NCCMH       2.620   0.500   P
NCCAO       2.750  -1.000   P
NCJST       3.320   0.500   P
NCCAD       3.590   1.000   P
NCJCB       4.260   1.000   P
NCCML       4.300   0.100   P
NCCAL       4.200  -1.000   P
NCCMM       4.760   0.200   P
NCHSP       4.870   0.500   P
NCJHL       5.070   0.500   P
NCJRR       5.310   0.200   P
NCHGS       5.560   0.100   P
NCHPL       7.830   0.200   P
NCHPH      11.700   0.500   P
NCPBW      15.110   0.200   P
# 1984  6 27 14 50 38.14  37.2913 -121.6708    3.61 1.59  0.17  0.37  0.02      21644
NCCCO       1.470  -1.000   P
NCCSC       2.650   0.200   P
NCCMH       2.620   1.000   P
NCCAO       2.760  -1.000   P
NCJST       3.390   0.100   P
NCCAD       3.550   0.200   P
NCJCB       4.250   1.000   P
NCCML       3.980   0.100   P
NCCAL       4.240   1.000   P
NCJAL       4.470   1.000   P
NCHSP       4.810   1.000   P
NCCMM       4.770   0.500   P
NCJHL       5.060   1.000   P
NCJRR       5.320   1.000   P
NCJSS       5.400   1.000   P
NCHGS       5.550   0.500   P
NCJLX       5.790   0.100   P
NCHGW       5.910   0.200   P
NCCDV       5.960   0.500   P
NCCMJ       5.960   0.100   P
NCJBZ       6.760   0.200   P
NCCMR       6.520   0.200   P
NCJBC       6.910   0.100   P
# 1984  7  7  0 17  9.97  37.2907 -121.6722    3.91 2.67  0.11  0.33  0.06      22271
NCCCO       1.470  -1.000   P
NCCSC       2.620   1.000   P
NCCAO       2.770   1.000   P
NCCAO       4.990   0.100   S
NCJST       3.310   1.000   P
NCCAD       3.500   1.000   P
NCJCB       4.250   1.000   P
NCCML       4.310   1.000   P
NCCAL       4.230   1.000   P
NCJAL       4.490   1.000   P
NCHSP       4.820   1.000   P
NCCMM       4.770   1.000   P
NCJHL       5.070   1.000   P
NCJSS       5.410   1.000   P
NCJRR       5.320   1.000   P
NCHGS       5.580   1.000   P
NCJLX       5.820   0.500   P
NCHGW       5.920   1.000   P
NCCDV       5.960   1.000   P
NCCMJ       6.070   1.000   P
NCJBZ       6.760   1.000   P
NCJSG       7.010   1.000   P
NCHCA       6.560   0.200   P
NCCMR       6.490   1.000   P
NCJTG       6.990   0.200   P
NCJBC       6.910   1.000   P
NCCOS       6.820   1.000   P
NCCVA       7.260   1.000   P
NCHPR       7.460   0.500   P
NCJSJ       7.610   0.500   P
NCCMN       7.310   1.000   P
NCJPL       7.630   0.500   P
NCHCR       7.160   0.500   P
NCJRG       7.480   0.200   P
NCCVL       7.910   1.000   P
NCHCB       7.770   0.200   P
NCCST       8.270   1.000   P
NCHFE       7.700   1.000   P
NCCSA       8.300   0.100   P
NCJBM       8.110   1.000   P
NCHPL       7.840   1.000   P
NCHOR       8.580   0.200   P
NCHCP       8.120   1.000   P
NCHCO       8.840   0.500   P
NCHAZ       8.850   0.100   P
NCCPL       8.580   1.000   P
NCJSF       8.670   1.000   P
NCJUC       8.850   1.000   P
NCCCY       8.450   1.000   P
NCJBL       8.840   0.500   P
NCJLT       8.870   1.000   P
NCJPP       9.190   0.500   P
NCHKR       9.680   0.500   P
NCCDA       7.960   1.000   P
NCHBT       9.740   1.000   P
NCHDL       9.530   0.100   P
NCCDO      10.420   1.000   P
NCCSH       9.650   1.000   P
NCHPH      10.720   0.100   P
NCHSF      10.620   0.100   P
NCHJG      10.370   1.000   P
NCHLT      10.180   1.000   P
NCJHP      10.540   1.000   P
NCCBS      11.400   1.000   P
NCCMO      11.370   0.200   P
NCJBG      10.980   1.000   P
NCHSL      10.990   1.000   P
NCCLC      11.300   1.000   P
NCJPS      11.090   1.000   P
NCHFP      11.510   0.500   P
NCHJS      11.430   1.000   P
NCBSL      12.260   1.000   P
NCBVY      12.320   1.000   P
NCHQR      11.630   0.500   P
NCCBR      12.880   0.100   P
NCCMC      13.010   1.000   P
NCBSR      12.660   1.000   P
NCBCG      13.640   0.500   P
NCCRP      13.460   1.000   P
NCBHR      13.150   0.500   P
NCJSA      12.760   1.000   P
NCJEG      12.850   0.100   P
NCBLR      14.850   1.000   P
NCHMO      13.920   1.000   P
NCCBW      15.490   0.200   P
NCJMG      14.130   0.200   P
NCBEH      15.460   0.100   P
NCBEM      13.680   0.100   P
NCCDU      15.980   0.500   P
NCBRM      17.400   1.000   P
NCJPR      15.720   1.000   P
NCBAV      16.170   1.000   P
NCCAI      16.120   1.000   P
NCNHM      18.980   0.200   P
NCNLH      33.190   0.500   P
NCBSG      17.970   1.000   P
NCBHS      18.480   0.200   P
NCBMS      18.560   1.000   P
NCNTA      18.320   1.000   P
NCMYL      18.760   1.000   P
NCBPF      20.120   0.100   P
NCMNH      20.060   0.200   P
NCPBW      21.900   0.500   P
NCBPP      21.230   0.200   P
NCPLO      22.980   0.100   P
NCNOL      21.390   0.200   P
NCMST      37.750   1.000   P
NCNLN      21.990   0.500   P
NCNBR      40.550   1.000   P
NCNCF      25.520   0.200   P
NCNTB      45.370   0.200   P
NCMHD      25.910   1.000   P
NCNWR      49.870   0.200   P
NCPBY      27.140   0.100   P
NCMAT      48.210   1.000   P
NCGHC      33.780   0.200   P
NCGNA      48.530   0.200   P
# 1984  7  7  2 35  4.06  37.2903 -121.6708    3.34 1.53  0.29  0.37  0.02      22280
NCCCO       1.430  -1.000   P
NCCSC       2.660   0.500   P
NCCAO       2.760   1.000   P
NCJST       3.330   0.100   P
NCJCB       4.230   1.000   P
NCCML       4.320   0.100   P
NCJAL       4.490   0.100   P
NCHSP       4.770   1.000   P
NCCMM       4.800   1.000   P
NCJHL       5.060   1.000   P
NCJRR       5.300   1.000   P
NCJSS       5.420   0.100   P
NCHGS       5.510   0.100   P
NCHGW       5.890   0.200   P
NCCDV       6.040   0.200   P
NCCMR       6.530   0.500   P
# 1984  7 17 16 24 49.44  37.2900 -121.6703    3.62 1.85  0.11  0.29  0.04      23190
NCCCO       1.440  -1.000   P
NCCSC       2.620   0.500   P
NCCAO       2.760   1.000   P
NCCAD       3.270   0.200   P
NCJST       3.350   0.200   P
NCJCB       4.240   1.000   P
NCCML       4.340   1.000   P
NCCAL       4.280   1.000   P
NCJAL       4.460   1.000   P
NCHSP       4.780   1.000   P
NCCMM       4.790   1.000   P
NCJHL       5.070   1.000   P
NCJRR       5.300   1.000   P
NCJSS       5.390   1.000   P
NCHGS       5.500   0.500   P
NCJLX       5.850   0.200   P
NCHGW       5.890   0.200   P
NCCDV       5.990   0.500   P
NCCMJ       6.090   0.500   P
NCJBZ       6.750   0.500   P
NCHCA       6.510   0.100   P
NCJSG       7.030   0.100   P
NCCMR       6.520   0.500   P
NCJTG       7.890   0.500   P
NCJBC       6.920   0.200   P
NCCVA       7.300   1.000   P
NCHPR       7.430   0.200   P
NCJPL       8.140   0.100   P
NCCMN       7.190   0.100   P
NCJSJ       7.600   0.100   P
NCHCR       7.120   0.200   P
NCJRG       8.190   0.200   P
NCHCB       7.710   0.100   P
NCCVL       7.960   0.100   P
NCHFE       7.750   0.100   P
NCCST       8.270   0.200   P
NCHPL       7.760   0.500   P
NCJBM       8.110   0.500   P
NCHCP       8.080   1.000   P
NCJSF       4.710   0.100   P
NCJBL       8.870   0.100   P
NCJPP       9.280   1.000   P
NCHDL       9.760   0.500   P
NCHSF      11.290   1.000   P
NCHJG      10.310   0.200   P
NCJHP      10.570   1.000   P
NCJBG      10.810   0.100   P
NCHFP      11.490   0.200   P
NCBVY      12.350   0.200   P
NCHQR      11.730   0.200   P
NCBSR      12.720   1.000   P
NCJSA      13.160   0.200   P
NCJMG      14.390   0.500   P
NCCAI      16.290   0.500   P
# 1984  8  7  9  7  6.33  37.2907 -121.6712    3.34 1.17  0.19  0.35  0.03      25096
NCCCO       1.430  -1.000   P
NCCSC       2.640   0.500   P
NCCMH       2.620   0.200   P
NCCAO       2.760   1.000   P
NCJST       3.370   0.200   P
NCCAD       3.460   0.200   P
NCJCB       4.250   1.000   P
NCCML       4.330   0.500   P
NCCAL       4.260   1.000   P
NCJAL       4.480   0.100   P
NCHSP       4.810   1.000   P
NCCMM       4.780   1.000   P
NCJHL       5.080   1.000   P
NCJRR       5.260   1.000   P
NCJSS       5.420   0.100   P
NCHGS       5.570   0.100   P
NCJEC       5.890   0.500   P
NCJLX       5.850   0.200   P
NCCDV       5.960   0.500   P
NCCMJ       6.120   0.100   P
NCJBZ       6.800   0.500   P
NCJSG       7.020   0.100   P
NCCMR       6.520   0.500   P
NCHCP       8.090   0.100   P
# 1984  9 23  8 43 14.72  37.2928 -121.6703    3.04 1.07  0.21  0.88  0.03      28475
NCCCO       1.460  -0.200   P
NCCSC       2.570   0.200   P
NCCMH       2.600   0.200   P
NCCAO       2.750  -1.000   P
NCCAO       5.210   0.100   S
NCJST       3.350   0.500   P
NCJST       6.080   0.100   S
NCCAD       3.520   0.200   P
NCJCB       4.280   0.500   P
NCCAL       4.230   0.200   P
NCJAL       4.490   0.100   P
NCCMM       4.610   0.100   P
NCHSP       4.830  -1.000   P
NCJHL       5.080   0.200   P
NCCMP       6.150   0.100   P
NCCMP      10.970   0.100   S
NCHPL       7.850   0.100   P
NCHCP       5.530   0.100   P
# 1984 11 18  0 28 55.24  37.2890 -121.6703    3.42 1.69  0.15  0.39  0.04      32049
NCCCO       1.430  -1.000   P
NCCSC       2.670   1.000   P
NCCMH       2.690   1.000   P
NCCAO       4.920   0.100   S
NCCAO       2.760   1.000   P
NCJST       3.320   1.000   P
NCJCB       4.220   1.000   P
NCCML       4.350   1.000   P
NCCAL       4.290   1.000   P
NCJAL       4.470   1.000   P
NCHSP       4.760   1.000   P
NCCMM       4.800   1.000   P
NCJHL       5.060   1.000   P
NCHGS       5.520   1.000   P
NCJEC       5.880   1.000   P
NCJLX       5.830   1.000   P
NCHGW       5.890   1.000   P
NCCDV       6.020   1.000   P
NCCMJ       6.140   0.200   P
NCJBZ       6.720   0.100   P
NCHCA       6.840   0.100   P
NCJSG       7.010   1.000   P
NCCMR       6.570   1.000   P
NCJBC       6.940   0.200   P
NCHPR       7.430   0.500   P
NCCVA       7.320   0.200   P
NCHCR       7.120   1.000   P
NCJSJ       7.660   0.200   P
NCCVL       7.990   0.200   P
NCCST       8.300   0.500   P
NCJBM       8.180   1.000   P
NCHCP       8.110   0.200   P
NCCCY       8.600   0.500   P
NCJLT       8.780   0.500   P
NCHFH      10.100   1.000   P
NCJPP       8.950   0.100   P
NCHDL       9.740   1.000   P
NCHQR      11.740   0.100   P
NCJMG      14.810   0.200   P
NCPCR      26.550   0.100   P
# 1984 12 22  4 43 44.71  37.2908 -121.6708    3.71 1.60  0.16  0.47  0.03      35109
NCCCO       1.460  -1.000   P
NCCSC       2.620   0.500   P
NCCMH       2.620   1.000   P
NCCAO       2.770   1.000   P
NCJST       3.360   1.000   P
NCCAD       3.480   0.500   P
NCJCB       4.260   1.000   P
NCCML       4.310   0.500   P
NCCAL       4.250   1.000   P
NCJAL       4.480   1.000   P
NCHSP       4.810   1.000   P
NCCMM       4.780   1.000   P
NCJHL       5.080   1.000   P
NCJRR       5.320   1.000   P
NCJSS       5.410   1.000   P
NCHGS       5.560   1.000   P
NCJEC       5.900   0.500   P
NCJLX       5.810   1.000   P
NCHGW       5.830   0.100   P
NCCDV       5.980   1.000   P
NCCMJ       6.100   0.500   P
NCCMP       6.010   1.000   P
NCJBZ       6.770   0.500   P
NCJSG       7.010   1.000   P
NCCMR       6.520   1.000   P
NCJBC       6.920   1.000   P
NCCVA       7.270   0.200   P
NCHCR       7.160   1.000   P
NCJPP       9.240   1.000   P
NCHDL       9.540   0.500   P
NCHJG      10.410   0.500   P
NCJHP      10.530   0.200   P
NCJBG      14.040   0.100   P
NCHQR      12.010   0.500   P
NCJMG      14.530   0.200   P
NCNHM      10.030   0.200   P
# 1985  2 28  1  9 58.30  37.2885 -121.6705    3.49 0.84  0.23  0.33  0.03      42349
NCCCO       1.420  -1.000   P
NCCSC       2.660  -1.000   P
NCCMH       2.680  -1.000   P
NCCMH       5.230   0.100   S
NCCAO       2.700   0.200   P
NCCAO       5.120   0.100   S
NCCAD       3.400   0.100   P
NCJST       3.350   0.200   P
NCJCB       4.160  -1.000   P
NCJAL       4.500   0.100   P
NCHSP       4.760   0.200   P
NCCMM       4.740  -0.500   P
NCJHL       5.010   0.200   P
NCJRR       5.280   0.200   P
NCHGS       5.550   0.200   P
NCJEC       5.820   0.100   P
# 1985  3  2  6 53 56.01  37.2887 -121.6688    3.67 1.74  0.15  0.40  0.04      42555
NCCCO       1.440  -1.000   P
NCCSC       2.660   1.000   P
NCCMH       2.670   1.000   P
NCCAO       2.750   1.000   P
NCCAD       3.430   1.000   P
NCJST       3.330   1.000   P
NCJCB       4.220   1.000   P
NCCML       4.360   1.000   P
NCCAL       4.300   1.000   P
NCJAL       4.480   1.000   P
NCHSP       4.760   1.000   P
NCCMM       4.800   1.000   P
NCJHL       5.060   1.000   P
NCJRR       5.290   1.000   P
NCJSS       5.330   0.100   P
NCHGS       5.500   1.000   P
NCJEC       5.870   1.000   P
NCHGW       5.880   1.000   P
NCCDV       6.020   1.000   P
NCCMJ       6.140   1.000   P
NCCMP       6.010   1.000   P
NCJBZ       6.730   0.500   P
NCHCA       6.620   0.100   P
NCJSG       7.040   0.200   P
NCCMR       6.540   1.000   P
NCJBC       6.970   0.500   P
NCCVA       7.250   0.200   P
NCHCR       7.150   0.500   P
NCCVL       8.020   1.000   P
NCCST       8.290   1.000   P
NCHPL       7.780   1.000   P
NCHOR       8.470   0.200   P
NCJSM       8.830   0.100   P
NCJUC       8.850   0.100   P
NCHFH       9.790   0.200   P
NCHKR       9.680   0.500   P
NCHDL       9.500   1.000   P
NCHFP      11.640   0.200   P
NCHQR      11.950   0.200   P
NCJMG      14.840   0.200   P
NCJPR      15.950   0.200   P
# 1985  3  2  8 55  3.47  37.2898 -121.6702    3.58 1.91  0.11  0.35  0.04      42559
NCCCO       1.440  -1.000   P
NCCSC       2.650   1.000   P
NCCMH       2.650   1.000   P
NCCAO       2.760   1.000   P
NCCAD       3.450   1.000   P
NCJST       3.340   1.000   P
NCJCB       4.230   1.000   P
NCCML       4.320   1.000   P
NCCAL       4.280   1.000   P
NCJAL       4.480   1.000   P
NCHSP       4.780   1.000   P
NCCMM       4.790   1.000   P
NCJHL       5.060   1.000   P
NCJRR       5.310   1.000   P
NCJSS       5.400   0.200   P
NCHGS       5.530   1.000   P
NCJEC       5.890   1.000   P
NCHGW       5.900   1.000   P
NCCDV       6.010   1.000   P
NCCMJ       6.120   0.200   P
NCCMP       6.010   1.000   P
NCJBZ       6.760   0.500   P
NCHCA       7.060   1.000   P
NCJSG       7.030   1.000   P
NCCMR       6.530   1.000   P
NCJBC       6.920   1.000   P
NCCVA       7.290   1.000   P
NCJPL       7.890   0.500   P
NCCMN       7.330   0.200   P
NCHCR       7.750   0.200   P
NCHCB       7.730   0.100   P
NCCVL       7.960   1.000   P
NCJSC       7.690   0.500   P
NCHFE       8.130   1.000   P
NCCST       8.280   1.000   P
NCHPL       7.810   1.000   P
NCJBM       8.130   1.000   P
NCHOR       8.670   0.100   P
NCHCP       8.110   1.000   P
NCJSM       8.680   1.000   P
NCHAZ       8.920   0.100   P
NCCCY       8.590   0.200   P
NCJBL       9.210   0.100   P
NCJLT       8.920   0.500   P
NCHKR       9.920   0.200   P
NCHDL       9.490   0.500   P
NCHSF      11.000   0.100   P
NCHJG      10.290   0.200   P
NCJHP      10.630   0.100   P
NCJBG      11.130   0.500   P
NCCLC      11.380   1.000   P
NCHFP      11.550   0.100   P
NCBSL      12.010   0.100   P
NCBVY      12.380   0.500   P
NCHQR      11.750   0.200   P
NCBPC      14.370   1.000   P
NCJMG      14.400   0.500   P
NCJPR      16.320   0.200   P
NCCAI      16.370   0.200   P
NCMHD      25.790   0.500   P
# 1985  3  2  8 55 29.59  37.2892 -121.6690    3.51 2.08  0.14  0.41  0.03      42643
NCCCO       1.430  -1.000   P
NCCSC       2.650   1.000   P
NCCMH       2.670   1.000   P
NCCAO       2.760   1.000   P
NCCAD       3.440   1.000   P
NCJST       3.350   1.000   P
NCJCB       4.220   1.000   P
NCCML       4.370   1.000   P
NCCAL       4.290   1.000   P
NCJAL       4.480   1.000   P
NCHSP       4.770   1.000   P
NCCMM       4.780   1.000   P
NCJHL       5.060   1.000   P
NCJRR       5.300   1.000   P
NCJSS       5.390   1.000   P
NCHGS       5.540   1.000   P
NCJEC       5.880   1.000   P
NCHGW       5.890   1.000   P
NCCDV       6.030   0.200   P
NCCMJ       6.140   0.200   P
NCCMP       6.000   1.000   P
NCJBZ       6.740   0.100   P
NCHCA       7.030   0.200   P
NCJSG       7.040   0.200   P
NCCMR       6.550   1.000   P
NCHPR       7.420   0.200   P
NCCVA       7.320   1.000   P
NCCVL       7.970   0.200   P
NCJSC       7.690   0.100   P
NCCST       8.300   1.000   P
NCHPL       7.790   1.000   P
NCHCP       8.080   1.000   P
NCCCY       8.650   0.200   P
NCHDL       9.500   0.200   P
NCHJG      10.380   0.200   P
NCJHP      10.560   0.100   P
NCHFP      11.530   0.200   P
# 1985  3  2  8 58  0.48  37.2903 -121.6703    3.43 1.22  0.21  0.43  0.03      42560
NCCCO       1.440  -1.000   P
NCCSC       2.610   0.500   P
NCCMH       2.620   1.000   P
NCCAO       2.740   1.000   P
NCCAD       3.360   0.200   P
NCJST       3.350   1.000   P
NCJCB       4.210   1.000   P
NCCML       4.340   0.500   P
NCCAL       4.230   1.000   P
NCJAL       4.430   0.500   P
NCHSP       4.780   1.000   P
NCCMM       4.780   0.500   P
NCJHL       5.050   1.000   P
NCJRR       5.290   1.000   P
NCHGS       5.540   0.200   P
NCHGW       5.890   0.500   P
NCCDV       5.970   0.200   P
NCCMP       6.010   0.200   P
NCJSG       6.990   0.200   P
NCCMR       6.520   1.000   P
NCCST       8.330   1.000   P
NCHCP       8.140   0.100   P
# 1985  6 15  1 38 57.38  37.2933 -121.6708    3.42 0.94  0.25  0.74  0.03      49626
NCCCO       1.490  -0.500   P
NCCSC       2.620   0.500   P
NCCMH       2.600   0.500   P
NCCAO       2.750  -1.000   P
NCCAO       5.200   0.100   S
NCJST       3.400   0.500   P
NCCAD       3.550   0.100   P
NCJCB       4.250   1.000   P
NCCAL       4.130   0.100   P
NCJAL       4.500   0.200   P
NCHSP       4.830   1.000   P
NCJHL       5.070   0.200   P
NCJRR       5.320   0.500   P
