# 1985  8 28 20 35 10.10  37.2892 -121.6702    3.53 1.58  0.17  0.45  0.03      54084
NCCCO       1.440  -1.000   P
NCCSC       2.660   1.000   P
NCCMH       2.640   1.000   P
NCCAO       2.760   1.000   P
NCCAD       3.450   0.500   P
NCJST       3.320   1.000   P
NCJCB       4.240   0.500   P
NCCML       4.340   1.000   P
NCCAL       4.230   0.500   P
NCJAL       4.470   1.000   P
NCHSP       4.770   1.000   P
NCJHL       5.060   1.000   P
NCJRR       5.300   1.000   P
NCJSS       5.400   1.000   P
NCHGS       5.550   1.000   P
NCJEC       5.880   1.000   P
NCJLX       5.820   0.500   P
NCHGW       5.900   1.000   P
NCCDV       6.010   1.000   P
NCCMJ       6.120   1.000   P
NCCMP       6.020   0.500   P
NCJBZ       6.760   1.000   P
NCHCA       7.040   1.000   P
NCJSG       7.020   1.000   P
NCCMR       6.540   0.500   P
NCJBC       7.090   0.200   P
NCCVA       7.310   1.000   P
NCHCR       7.130   1.000   P
NCCMN       7.340   0.500   P
NCCVL       8.010   1.000   P
NCCST       8.330   1.000   P
NCHPL       7.810   1.000   P
NCJBM       8.230   0.200   P
NCHQR      12.350   0.100   P
NCBSR      12.750   0.500   P
NCNOL      22.800   0.500   P
NCPCR      29.310   0.200   P
# 1985 10 28  3 55 38.13  37.2907 -121.6715    3.30 1.31  0.17  0.32  0.03      57770
NCCCO       1.440  -1.000   P
NCCSC       2.630   0.500   P
NCCMH       2.610   0.500   P
NCCAO       2.770   1.000   P
NCCAO       4.960   0.100   S
NCJST       3.290   0.200   P
NCCAD       3.440   0.200   P
NCJCB       4.260   0.500   P
NCCML       4.360   0.500   P
NCCAL       4.270   0.200   P
NCJAL       4.310   0.100   P
NCHSP       4.820   0.500   P
NCJHL       5.070   1.000   P
NCJRR       5.330   0.500   P
NCJSS       5.400   0.500   P
NCHGS       5.570   0.500   P
NCHGW       5.960   0.500   P
NCCDV       6.010   0.500   P
NCCMJ       6.020   0.200   P
NCCMP       6.050   0.500   P
NCJSG       7.030   0.500   P
NCHCA       7.080   0.500   P
NCCMR       6.540   1.000   P
NCJBC       6.930   0.500   P
NCJSC       7.450   0.100   P
NCJBM       8.150   0.200   P
# 1985 12 31 15 50 52.23  37.2888 -121.6695    3.40 1.74  0.11  0.25  0.05      62514
NCCCO       1.430  -1.000   P
NCCSC       2.710   1.000   P
NCCMH       2.660   0.500   P
NCCAO       2.750   1.000   P
NCCAO       5.170   0.100   S
NCCAD       3.420   0.500   P
NCJST       3.310   0.500   P
NCJCB       4.220   1.000   P
NCCML       4.370   1.000   P
NCCAL       4.290   0.500   P
NCJAL       4.470   1.000   P
NCHSP       4.750   1.000   P
NCJHL       5.050   1.000   P
NCJRR       5.290   0.500   P
NCJSS       5.410   1.000   P
NCJEC       5.860   0.500   P
NCJLX       5.820   0.500   P
NCHGW       5.880   1.000   P
NCCDV       6.000   1.000   P
NCCMJ       6.120   0.500   P
NCCMP       6.010   0.500   P
NCJBZ       6.700   0.200   P
NCHCA       6.490   0.100   P
NCJSG       7.030   0.500   P
NCCMR       6.500   0.200   P
NCJTG       7.030   1.000   P
NCJBC       6.910   0.500   P
NCCOS       6.610   0.100   P
NCHPR       7.430   0.500   P
NCCVA       7.200   0.100   P
NCJPL       7.430   0.100   P
NCHCR       7.040   0.100   P
NCCMN       7.340   0.200   P
NCJSJ       7.640   0.500   P
NCJRG       7.540   0.100   P
NCJSC       7.660   0.200   P
NCHFE       7.650   0.200   P
NCHPL       7.730   0.100   P
NCJBM       8.110   0.200   P
NCHOR       8.280   0.100   P
NCHCP       8.070   0.500   P
NCJSM       8.650   0.500   P
NCJUC       8.800   0.100   P
NCJSF       8.710   0.500   P
NCCCY       8.640   1.000   P
NCJBL       8.790   0.100   P
NCHFH       9.360   0.100   P
NCJLT       8.860   0.100   P
NCJPP       9.200   0.200   P
NCHBT      10.040   0.500   P
NCHDL       9.400   0.200   P
NCHJG      10.410   0.200   P
NCJHP      10.630   0.100   P
NCHFP      11.640   1.000   P
NCBSL      14.000   0.500   P
NCBVY      12.350   1.000   P
NCHQR      11.720   0.200   P
NCBSR      12.700   0.500   P
NCJSA      13.210   0.100   P
NCJMG      14.490   0.100   P
NCBJO      14.730   0.100   P
NCPWM      25.600   0.500   P
# 1985 12 31 18  3  3.48  37.2895 -121.6707    3.32 1.62  0.13  0.52  0.05      62520
NCCCO       1.430   0.500   P
NCCSC       2.650   0.500   P
NCCMH       2.660   0.200   P
NCCAO       2.750   1.000   P
NCCAO       4.910   0.200   S
NCCAD       3.450   0.500   P
NCJST       3.320   1.000   P
NCJCB       4.210   0.500   P
NCCML       4.380   1.000   P
NCCAL       4.290   1.000   P
NCCAL       7.860   0.100   S
NCJAL       4.470   0.500   P
NCHSP       4.750   1.000   P
NCJHL       5.050   1.000   P
NCJRR       5.290   1.000   P
NCJSS       5.410   1.000   P
NCJEC       2.410   0.500   P
NCJLX       5.860   1.000   P
NCHGW       5.880   0.500   P
NCCDV       6.000   0.500   P
NCCMJ       6.120   0.500   P
NCCMP       6.000   0.500   P
NCHCA       7.010   0.500   P
NCJSG       7.010   1.000   P
NCCMR       6.530   0.500   P
NCJTG       7.770   0.200   P
NCJBC       6.910   0.500   P
NCHPR       7.440   0.500   P
NCJSJ       7.650   0.500   P
NCCMN       7.350   0.500   P
NCHCR       7.100   0.500   P
NCJRG       7.480   0.500   P
NCCVL       7.970   0.500   P
NCJSC       7.690   0.500   P
NCJBM       8.170   0.200   P
NCHCP       8.070   0.500   P
NCJSM       8.650   1.000   P
NCHAZ       9.010   0.500   P
NCCPL       8.750   0.500   P
NCJUC       8.940   0.200   P
NCCCY       8.610   0.500   P
NCJBL       9.210   0.100   P
NCJLT       8.910   1.000   P
NCHFH       9.880   0.200   P
NCJPP       9.250   1.000   P
NCHBT      10.040   0.500   P
NCHDL       9.910   0.500   P
NCHSF      10.870   0.200   P
NCJHP      10.580   0.500   P
NCBVY      12.530   0.500   P
NCHQR      11.950   0.200   P
NCBSR      12.810   1.000   P
NCJEG      13.570   0.100   P
NCJMG      14.410   0.200   P
# 1986  3  8 10 32  4.41  37.2917 -121.6707    3.59 1.63  0.16  0.45  0.04      67820
NCCCO       1.470  -0.500   P
NCCSC       2.550   0.200   P
NCCMH       2.620   0.500   P
NCCAO       2.770   0.500   P
NCCAO       4.930   0.100   S
NCJST       3.320   0.500   P
NCCAD       3.480   0.500   P
NCJCB       4.260   0.500   P
NCCAL       4.230   0.500   P
NCCAL       7.770   0.100   S
NCJAL       4.490   0.500   P
NCHSP       4.830   0.500   P
NCJRR       5.300   0.200   P
NCJLX       5.790   0.100   P
NCHGW       5.910   0.500   P
NCCDV       5.990   0.500   P
NCCMJ       6.000   0.100   P
NCCMP       6.020   0.500   P
NCJBZ       6.820   0.200   P
NCJSG       7.020   0.500   P
NCCMR       6.500   0.500   P
NCHCA       7.070   0.500   P
NCCVA       7.260   0.200   P
NCCMN       7.620   0.200   P
NCHCP       8.110   0.500   P
NCBSR      12.960   0.200   P
# 1986  6  1 10 51 31.46  37.2892 -121.6698    3.23 1.21  0.18  0.39  0.03      73786
NCCCO       1.400  -1.000   P
NCCSC       2.620   0.500   P
NCCMH       2.650   0.200   P
NCCAO       2.760   1.000   P
NCCAD       3.440   1.000   P
NCJST       3.360   0.500   P
NCJCB       4.230   1.000   P
NCCAL       4.290   1.000   P
NCJAL       4.490   1.000   P
NCHSP       4.770   1.000   P
NCCMM       4.850   1.000   P
NCJHL       5.060   1.000   P
NCJRR       5.320   0.500   P
NCJSS       5.390   1.000   P
NCHGS       5.550   0.100   P
NCJLX       5.890   0.100   P
NCHGW       5.910   0.200   P
NCCDV       6.020   0.100   P
NCJBZ       6.760   0.100   P
NCHCA       7.040   0.500   P
NCCMR       6.590   0.500   P
NCHCR       7.150   1.000   P
NCHCP       8.110   1.000   P
NCHFP      11.630   1.000   P
NCBVY      12.450   0.200   P
# 1986  7 25  9 22 50.29  37.2893 -121.6712    3.86 2.26  0.11  0.34  0.05      77218
NCCCO       1.440  -1.000   P
NCCSC       2.650   1.000   P
NCCMH       2.650   1.000   P
NCCAO       2.750   1.000   P
NCCAO       4.930   0.100   S
NCCAD       3.470   1.000   P
NCJST       3.360   1.000   P
NCJCB       4.230   1.000   P
NCCML       4.330   1.000   P
NCCAL       4.280   1.000   P
NCCAL       7.790   0.100   S
NCHSP       4.780   1.000   P
NCCMM       4.810   1.000   P
NCJHL       5.070   1.000   P
NCJRR       5.300   1.000   P
NCJSS       5.400   0.500   P
NCHGS       5.550   1.000   P
NCJEC       5.870   1.000   P
NCJLX       5.810   1.000   P
NCCDV       6.000   1.000   P
NCCMJ       6.120   1.000   P
NCCMP       6.000   1.000   P
NCJBZ       6.790   0.100   P
NCJSG       7.020   1.000   P
NCCMR       6.520   1.000   P
NCJTG       6.990   0.500   P
NCJBC       6.910   1.000   P
NCCOS       6.580   0.100   P
NCHPR       7.420   1.000   P
NCJPL       7.590   0.500   P
NCJSJ       7.630   1.000   P
NCHCR       7.120   1.000   P
NCCMN       7.330   0.500   P
NCHCB       7.760   1.000   P
NCJSC       7.650   0.100   P
NCHFE       7.810   0.200   P
NCCST       8.330   1.000   P
NCHPL       7.790   1.000   P
NCHOR       8.270   0.500   P
NCHCP       8.100   1.000   P
NCHCO       8.670   0.500   P
NCJSM       8.640   1.000   P
NCHAZ       8.830   0.500   P
NCJSF       8.680   1.000   P
NCJUC       8.950   0.100   P
NCCCY       8.580   0.200   P
NCJBL       8.820   0.200   P
NCJLT       8.840   1.000   P
NCHFH       9.940   0.200   P
NCHKR       9.670   0.100   P
NCHDL       9.490   0.500   P
NCHSF      11.140   0.500   P
NCHJG      10.430   0.200   P
NCJHP      10.550   1.000   P
NCJBG      10.980   0.500   P
NCCLC      11.380   1.000   P
NCBVY      12.320   1.000   P
NCBSR      12.890   1.000   P
NCJSA      12.850   0.100   P
NCJEG      13.300   0.200   P
NCBLR      14.930   0.100   P
NCBPC      14.330   0.500   P
NCBJO      14.710   0.500   P
NCBJC      15.210   0.200   P
NCCAI      16.090   0.500   P
NCBAP      21.620   1.000   P
NCMHD      25.670   0.100   P
# 1986  7 25 16  1 52.10  37.2923 -121.6720    3.33 1.15  0.24  0.49  0.08      77296
NCCCO       1.430  -1.000   P
NCCSC       2.600   0.100   P
NCCMH       2.610  -1.000   P
NCCAO       2.730   1.000   P
NCCAO       5.150   0.100   S
NCJST       3.380   0.100   P
NCCAD       3.700   1.000   P
NCJCB       4.220   1.000   P
NCCML       4.290   0.200   P
NCCAL       4.230   0.200   P
NCHSP       4.770   1.000   P
NCCMM       4.780   1.000   P
NCJSS       5.370   1.000   P
NCJRR       5.290   1.000   P
NCJLX       5.900   0.200   P
NCCDV       6.000   0.200   P
NCCMJ       6.020   0.100   P
NCCMR       6.510   0.200   P
# 1986  9  2  7 24 15.87  37.2920 -121.6722    3.53 0.83  0.20  0.53  0.04      81017
NCCCO       1.500  -1.000   P
NCCSC       2.600   1.000   P
NCCMH       2.610   0.200   P
NCCAO       2.770   1.000   P
NCCAD       3.530   0.100   P
NCJCB       4.290   1.000   P
NCCML       4.310   1.000   P
NCCAL       4.230   1.000   P
NCJAL       4.480   0.500   P
NCHSP       4.840   1.000   P
NCJHL       5.090   1.000   P
NCJSS       5.420   0.100   P
NCJRR       5.340   1.000   P
NCJLX       5.810   1.000   P
NCCDV       5.980   1.000   P
NCHGW       5.950   0.500   P
NCCMP       6.030   1.000   P
NCHCP       8.130   1.000   P
# 1986  9 15 20 17 49.93  37.2905 -121.6725    4.27 2.67  0.10  0.29  0.05      82606
NCCCO       1.480   1.000   P
NCCSC       2.600   1.000   P
NCCMH       2.600   1.000   P
NCCAO       2.760   1.000   P
NCCAO       4.940   0.200   S
NCJST       3.320   1.000   P
NCCAD       3.490   1.000   P
NCJCB       4.260   1.000   P
NCCML       4.290   1.000   P
NCCAL       4.220   1.000   P
NCJAL       4.490   1.000   P
NCHSP       4.810   1.000   P
NCCMM       4.790   1.000   P
NCJHL       5.070   1.000   P
NCJSS       5.400   1.000   P
NCJRR       5.340   1.000   P
NCJEC       5.900   1.000   P
NCHGS       5.580   1.000   P
NCJLX       5.800   1.000   P
NCHGW       5.940   0.500   P
NCCDV       5.950   1.000   P
NCCMJ       6.050   0.500   P
NCCMP       6.030   1.000   P
NCJBZ       6.820   1.000   P
NCJSG       7.010   0.200   P
NCHCA       6.530   1.000   P
NCJTG       7.010   1.000   P
NCJBC       6.900   1.000   P
NCCOS       6.780   0.500   P
NCCVA       7.260   1.000   P
NCHPR       7.460   1.000   P
NCJSJ       7.610   1.000   P
NCJPL       7.630   0.500   P
NCHCR       7.170   1.000   P
NCJRG       7.450   0.200   P
NCHCB       7.800   1.000   P
NCJSC       7.600   0.200   P
NCCST       8.250   1.000   P
NCHFE       7.680   0.200   P
NCCSA       8.310   0.500   P
NCJBM       8.100   0.500   P
NCHPL       7.850   1.000   P
NCHOR       8.310   1.000   P
NCHCP       8.130   1.000   P
NCHCO       8.800   1.000   P
NCJSM       8.620   1.000   P
NCCPL       8.730   1.000   P
NCJSF       8.660   1.000   P
NCJUC       8.660   1.000   P
NCCCY       8.460   1.000   P
NCJBL       8.780   0.100   P
NCJLT       8.800   0.200   P
NCJPP       9.170   1.000   P
NCCDA       9.800   1.000   P
NCHBT       9.790   0.100   P
NCHDL       9.530   1.000   P
NCCDO      10.470   0.200   P
NCCSH       9.880   0.100   P
NCHPH      10.690   0.500   P
NCHSF      10.910   1.000   P
NCHJG      10.320   1.000   P
NCJHP      10.550   1.000   P
NCCBS      11.370   1.000   P
NCCMO      11.780   0.200   P
NCJBG      10.990   1.000   P
NCHSL      11.090   0.100   P
NCCLC      11.320   1.000   P
NCJPS      11.060   1.000   P
NCHFP      11.610   0.500   P
NCBVY      12.250   0.500   P
NCHQR      11.650   0.100   P
NCCBR      13.170   0.100   P
NCBSR      12.690   1.000   P
NCBCG      13.750   1.000   P
NCBHR      13.560   0.200   P
NCJSA      12.770   1.000   P
NCJEG      12.760   0.500   P
NCBLR      14.840   1.000   P
NCHMO      13.900   1.000   P
NCBPC      14.330   0.200   P
NCBSC      14.880   1.000   P
NCBJO      14.720   1.000   P
NCBJC      15.010   1.000   P
NCBVL      16.410   1.000   P
NCJPR      15.720   0.100   P
NCBAV      16.200   1.000   P
NCCAI      16.000   1.000   P
NCCSP      17.020   0.200   P
NCBPR      16.970   1.000   P
NCBPI      17.070   1.000   P
NCBSM      17.890   1.000   P
NCBSG      17.850   0.200   P
NCNTA      18.230   1.000   P
NCBCW      18.930   1.000   P
NCBPF      20.080   1.000   P
NCMCU      20.400   0.200   P
NCBAP      20.880   0.100   P
NCPBW      23.130   0.200   P
NCAAS      22.110   0.500   P
NCMHD      25.210   0.100   P
NCMLR      26.350   1.000   P
NCMNP      28.400   1.000   P
NNSLK      36.920   0.500   P
NNLUL      38.110   0.500   P
NCMCM      39.560   0.100   P
# 1986  9 25 12  1 52.83  37.2907 -121.6700    3.60 1.36  0.15  0.42  0.03      83805
NCCCO       1.460  -1.000   P
NCCSC       2.620   0.200   P
NCCMH       2.610   1.000   P
NCCAO       2.750   1.000   P
NCCAO       4.900   0.100   S
NCCAD       3.480   0.100   P
NCJST       3.340   1.000   P
NCJCB       4.250   1.000   P
NCCML       4.300   1.000   P
NCCAL       4.230   1.000   P
NCJAL       4.480   1.000   P
NCHSP       4.800   1.000   P
NCCMM       4.810   1.000   P
NCJHL       5.060   1.000   P
NCJRR       5.320   1.000   P
NCHGS       5.560   1.000   P
NCJEC       5.880   0.200   P
NCJLX       5.830   0.200   P
NCHGW       5.920   1.000   P
NCCDV       5.980   0.500   P
NCCMJ       6.030   0.100   P
NCCMP       6.010   1.000   P
NCHCA       7.060   0.500   P
NCJSG       6.970   0.200   P
NCCMR       6.510   0.500   P
NCJBC       6.900   0.100   P
NCCVA       7.310   0.200   P
NCCST       8.280   0.500   P
NCHCP       8.110   1.000   P
NCCCY       8.540   0.200   P
# 1986 11 25 13  0 35.66  37.2922 -121.6702    4.32 1.01  0.20  1.60  0.02      88698
NCCCO       1.560   0.100   P
NCCSC       2.600   0.100   P
NCCMH       2.620   0.100   P
NCCAO       2.730  -1.000   P
NCJST       3.340   0.100   P
NCJST       5.990   0.200   S
NCCAD       3.500   0.100   P
NCJCB       4.230   1.000   P
NCCAL       4.190   1.000   P
NCHSP       4.790   1.000   P
NCCMM       4.740   1.000   P
NCJHL       5.060   0.100   P
NCJRR       5.310   1.000   P
NCJLX       5.840   1.000   P
NCJLX      10.840   0.100   S
NCCDV       5.930   1.000   P
NCHGW       5.910   1.000   P
NCCMJ       6.020   0.100   P
NCHCA       7.060   0.100   P
# 1987  6  3  6 56  7.74  37.2893 -121.6702    4.08 1.92  0.09  0.30  0.05     101361
NCCCO       1.450  -1.000   P
NCCSC       2.640   1.000   P
NCCMH       2.650   1.000   P
NCCAO       2.750   1.000   P
NCCAO       4.910   1.000   S
NCCAD       3.470   1.000   P
NCJST       3.350   1.000   P
NCJCB       4.240   1.000   P
NCCML       4.330   1.000   P
NCCAL       4.280   1.000   P
NCCAL       7.740   0.500   S
NCJAL       4.480   1.000   P
NCHSP       4.770   1.000   P
NCCMM       4.780   1.000   P
NCJRR       5.310   1.000   P
NCJSS       5.400   1.000   P
NCHGS       5.530   1.000   P
NCJEC       5.860   1.000   P
NCJLX       5.800   1.000   P
NCHGW       5.890   1.000   P
NCCDV       5.990   1.000   P
NCCDV      10.570   0.200   S
NCCMJ       6.110   1.000   P
NCCMP       6.000   1.000   P
NCJBZ       6.750   0.500   P
NCCMR       6.510   1.000   P
NCJTG       7.030   0.500   P
NCJBC       6.910   1.000   P
NCCOS       6.560   0.100   P
NCCVA       7.290   1.000   P
NCCVA      13.020   0.200   S
NCHPR       7.430   1.000   P
NCJPL       7.450   0.100   P
NCCMN       7.330   0.500   P
NCJRG       7.430   0.500   P
NCHCB       7.760   0.200   P
NCCVL       7.830   0.100   P
NCJSC       7.690   0.500   P
NCHFE       7.620   0.100   P
NCCST       8.270   1.000   P
NCHPL       7.800   0.500   P
NCJBM       8.100   1.000   P
NCHOR       8.320   0.200   P
NCHCP       8.090   1.000   P
NCHCO       8.760   0.500   P
NCJSM       8.640   0.500   P
NCHAZ       8.820   0.100   P
NCCPL       8.530   0.200   P
NCJUC       8.660   0.100   P
NCJSF       8.690   0.200   P
NCCCY       8.590   0.200   P
NCJBL       8.710   0.100   P
NCJLT       8.800   0.200   P
NCHFH       9.080   0.500   P
NCJPP       9.190   1.000   P
NCHDL       9.470   1.000   P
NCHSF      10.890   0.100   P
NCJBG      10.910   0.100   P
NCCLC      11.430   0.200   P
NCHFP      11.440   0.100   P
NCBVY      12.230   0.100   P
NCBSR      12.600   0.500   P
NCBSR      21.620   0.100   S
NCJSA      13.200   0.100   P
NCJEG      13.340   0.200   P
NCBPC      14.320   0.100   P
NCHMO      13.900   0.100   P
NCJMG      13.990   0.100   P
NCBJO      14.650   0.100   P
NCBJC      14.980   0.100   P
NCCAI      16.100   0.200   P
NCBSM      17.790   0.100   P
# 1987  6  3  6 58 51.32  37.2887 -121.6702    3.79 1.74  0.10  0.34  0.04     101362
NCCCO       1.440  -1.000   P
NCCSC       2.650   1.000   P
NCCMH       2.670   1.000   P
NCCAO       2.770   1.000   P
NCCAO       4.920   1.000   S
NCCAD       3.450   1.000   P
NCJST       3.300   1.000   P
NCJCB       4.230   1.000   P
NCCML       4.350   1.000   P
NCCAL       4.300   1.000   P
NCCAL       7.760   0.200   S
NCJAL       4.500   1.000   P
NCJAL       7.950   0.100   S
NCHSP       4.770   1.000   P
NCCMM       4.810   1.000   P
NCJRR       5.310   1.000   P
NCJSS       5.420   1.000   P
NCHGS       5.520   1.000   P
NCJEC       5.870   1.000   P
NCJLX       5.830   1.000   P
NCHGW       5.900   1.000   P
NCCDV       6.030   1.000   P
NCCMJ       6.130   1.000   P
NCCMP       6.010   1.000   P
NCJBZ       6.740   1.000   P
NCCMR       6.550   1.000   P
NCJTG       7.030   0.200   P
NCJBC       6.940   1.000   P
NCCOS       6.650   0.100   P
NCHPR       7.400   1.000   P
NCCVA       7.340   1.000   P
NCJPL       7.500   0.100   P
NCCMN       7.350   0.500   P
NCJRG       7.450   0.500   P
NCHCB       7.730   0.200   P
NCCVL       7.980   0.200   P
NCJSC       7.650   1.000   P
NCHFE       7.680   0.100   P
NCCST       8.320   1.000   P
NCHPL       7.810   0.100   P
NCJBM       8.150   1.000   P
NCHOR       8.210   0.200   P
NCHCP       8.110   1.000   P
NCHCO       8.710   0.200   P
NCJSM       8.670   1.000   P
NCJUC       9.040   0.100   P
NCCPL       8.650   0.200   P
NCCCY       8.620   0.500   P
NCJBL       8.870   0.200   P
NCJLT       8.860   0.100   P
NCHFH       9.710   0.200   P
NCJPP       9.200   1.000   P
NCHDL       9.500   0.500   P
NCCLC      11.670   0.100   P
NCHFP      11.520   0.100   P
NCBVY      12.250   0.100   P
NCBSR      12.610   0.500   P
NCBSR      21.570   0.100   S
NCJSA      13.230   0.200   P
NCJMG      14.440   0.500   P
NCBJO      14.750   0.500   P
NCBJC      15.390   0.500   P
NCBSM      17.850   0.100   P
