# 1991 12  3  5 24 24.98  37.2898 -121.6705    3.64 2.01  0.12  0.29  0.04     238704
NCCCO       1.450  -1.000   P
NCCSC       2.640   1.000   P
NCCMH       2.650   1.000   P
NCCAO       2.750   1.000   P
NCCAD       3.460   1.000   P
NCJST       3.340   1.000   P
NCJCB       4.240   1.000   P
NCJNA       4.220   0.200   P
NCCML       4.330   1.000   P
NCCAL       4.280   1.000   P
NCJAL       4.490   0.500   P
NCHSP       4.770   1.000   P
NCCMM       4.580   0.100   P
NCJHL       5.060   1.000   P
NCJUM       5.140   0.200   P
NCJRR       5.310   1.000   P
NCJSS       5.400   0.200   P
NCHGS       5.540   0.500   P
NCJEC       5.890   1.000   P
NCJLX       5.840   1.000   P
NCHGW       5.890   1.000   P
NCCDV       6.000   1.000   P
NCCMJ       6.120   0.500   P
NCCMP       6.020   0.500   P
NCJBZ       6.770   1.000   P
NCHCA       7.030   1.000   P
NCJSG       7.020   1.000   P
NCCMR       6.540   1.000   P
NCJTG       7.000   0.500   P
NCJBC       6.940   1.000   P
NCCOS       6.780   0.200   P
NCCVA       7.310   1.000   P
NCJPL       7.720   0.500   P
NCCMN       7.350   0.200   P
NCHCR       7.140   0.500   P
NCJRG       7.490   0.500   P
NCHCB       7.790   0.500   P
NCCVL       7.960   0.500   P
NCJSC       7.680   0.200   P
NCCST       8.270   1.000   P
NCHPL       7.810   0.200   P
NCJBM       8.150   0.200   P
NCHOR       8.580   0.200   P
NCHCO       8.790   0.500   P
NCJSM       8.660   0.200   P
NCJSF       8.700   0.200   P
NCJUC       8.880   0.200   P
NCJBL       8.860   0.500   P
NCJJR       8.910   0.200   P
NCJPP       9.270   1.000   P
NCHBT       9.820   0.200   P
NCHDL       9.590   0.100   P
NCHJG      10.380   1.000   P
NCCBS      11.510   0.500   P
NCJHP      10.610   1.000   P
NCCLC      11.400   0.500   P
NCJPS      11.420   0.200   P
NCHFP      11.600   0.100   P
NCBVY      11.900   0.100   P
NCJCH      13.060   0.100   P
NCJEG      12.900   0.100   P
NCBPC      14.390   1.000   P
NCBJO      14.740   0.200   P
NCBJC      15.240   1.000   P
NCCAI      16.160   1.000   P
NCBPR      17.950   0.200   P
NCBAP      21.570   1.000   P
NCNOL      22.120   0.100   P
# 1991 12  4  0  8 49.55  37.2892 -121.6698    3.77 1.89  0.12  0.28  0.04     238790
NCCCO       1.440  -1.000   P
NCCSC       2.650   1.000   P
NCCMH       2.650   1.000   P
NCCAO       2.770   0.200   P
NCCAO       4.920   0.200   S
NCCAD       3.450   1.000   P
NCJST       3.330   1.000   P
NCJCB       4.220   1.000   P
NCJNA       4.210   1.000   P
NCCML       4.320   1.000   P
NCCAL       4.280   1.000   P
NCJAL       4.470   0.500   P
NCHSP       4.760   1.000   P
NCJHL       5.050   1.000   P
NCJUM       5.080   0.500   P
NCJRR       5.290   1.000   P
NCJSS       5.420   0.500   P
NCHGS       5.520   0.500   P
NCJEC       5.870   0.200   P
NCJLX       5.870   0.500   P
NCHGW       5.880   1.000   P
NCCDV       6.010   1.000   P
NCCMJ       6.130   0.500   P
NCCMP       6.010   0.500   P
NCJBZ       6.750   1.000   P
NCHCA       6.540   0.100   P
NCJSG       7.010   0.500   P
NCCMR       6.530   0.500   P
NCJTG       6.970   1.000   P
NCJBC       6.930   0.200   P
NCCOS       6.780   0.200   P
NCCVA       7.320   0.200   P
NCHCR       7.120   1.000   P
NCJRG       7.970   0.200   P
NCHCB       7.740   0.500   P
NCCVL       7.960   0.500   P
NCJSC       7.670   0.200   P
NCCST       8.270   0.500   P
NCHPL       7.800   1.000   P
NCJBM       8.120   0.500   P
NCHOR       8.480   0.100   P
NCHCO       8.770   0.200   P
NCJSM       8.650   0.200   P
NCHAZ       8.870   0.200   P
NCCPL       8.730   0.500   P
NCJUC       8.820   0.200   P
NCJSF       8.710   0.200   P
NCCCY       8.470   0.200   P
NCJBL       8.750   0.100   P
NCJPP       9.240   0.500   P
NCHDL       9.500   0.200   P
NCHJG      10.320   0.200   P
NCHLT      10.230   0.200   P
NCCBS      11.410   0.200   P
NCJHP      10.500   0.200   P
NCCLC      11.310   0.100   P
NCJPS      11.470   0.100   P
NCHFP      11.430   0.200   P
NCBVY      12.200   0.200   P
NCBSR      12.640   1.000   P
NCJEG      13.320   0.500   P
NCBPC      13.640   0.200   P
NCBJO      14.730   0.200   P
NCBJC      15.220   0.200   P
NCCAI      16.430   0.500   P
# 1992  4  6  9 39 49.41  37.2910 -121.6700    2.97 0.92  0.23  1.09  0.04     261841
NCCCO       1.490   0.100   P
NCCMH       2.600  -0.500   P
NCCAO       2.770   0.500   P
NCCAD       3.600   0.100   P
NCJST       3.330   0.500   P
NCJCB       4.280   1.000   P
NCJNA       4.230   0.500   P
NCCML       4.260   0.100   P
NCCAL       4.230   0.200   P
NCJAL       4.500   0.200   P
NCHSP       4.820   1.000   P
NCJHL       5.080   1.000   P
NCJRR       5.330   1.000   P
NCHGS       5.600   0.500   P
NCHGW       5.930   0.500   P
NCCDV       5.970   0.500   P
NCCMJ       6.100   0.100   P
NCCMP       6.020   0.100   P
NCHCA       7.100   1.000   P
NCHCR       7.560   0.100   P
NCCCY       8.560  -1.000   P
# 1992  8 29 17  4 29.02  37.2893 -121.6670    3.37 1.64  0.19  0.44  0.06     312743
NCCCO       1.450  -1.000   P
NCCMH       2.600   0.500   P
NCCAO       2.730   1.000   P
NCCAO       4.880   0.200   S
NCCAD       3.480   0.200   P
NCJST       3.300   1.000   P
NCJCB       4.230   1.000   P
NCJNA       4.180   0.500   P
NCCML       4.270   1.000   P
NCCAL       4.210   0.500   P
NCJAL       4.440   0.500   P
NCHSP       4.780   1.000   P
NCCMM       4.780   1.000   P
NCJHL       5.040   1.000   P
NCJUM       5.090   0.200   P
NCJRR       5.290   1.000   P
NCHGS       5.540   0.200   P
NCJLX       5.770   0.200   P
NCHGW       5.890   1.000   P
NCCMP       5.980   0.500   P
NCJSG       6.960   0.200   P
NCJTG       6.930   0.200   P
NCHCR       7.140   0.200   P
NCJSC       7.570   0.200   P
NCHFE       8.090   0.200   P
NCJBM       8.430   1.000   P
NCHAZ       8.980   0.200   P
NCJPP       9.320   1.000   P
# 1992  9 11  1 22 13.65  37.2887 -121.6683    3.76 1.06  0.18  0.65  0.04     314921
NCCCO       1.410  -0.500   P
NCCMH       2.690  -1.000   P
NCCMH       5.000   0.200   S
NCCAO       2.750  -1.000   P
NCCAD       3.480   0.500   P
NCJST       3.360   0.200   P
NCJST       6.040   0.200   S
NCJCB       4.180   1.000   P
NCJNA       4.210   0.500   P
NCCAL       4.260   0.500   P
NCJAL       4.440   0.500   P
NCHSP       4.710   1.000   P
NCJHL       5.010   1.000   P
NCJRR       5.260   0.500   P
NCJSS       5.350   0.500   P
NCHGS       5.470   0.200   P
NCJEC       5.840   0.200   P
NCJLX       5.860   0.200   P
NCHGW       5.830   0.200   P
NCJBC       6.900   0.200   P
# 1993  1  9 17 48 38.71  37.2930 -121.6707    3.57 1.01  0.18  0.99  0.03     331552
NCCCO       1.490   0.200   P
NCCMH       2.570   0.500   P
NCCAO       2.750  -1.000   P
NCCAO       4.870   0.200   S
NCJST       3.320   0.500   P
NCCAD       3.560   0.200   P
NCJNA       4.230   0.200   P
NCJCB       4.260   1.000   P
NCCAL       4.210  -1.000   P
NCJAL       4.470   0.200   P
NCHSP       4.820   0.500   P
NCJHL       5.060   0.500   P
NCJSS       5.370   0.200   P
NCJRR       5.320   0.500   P
NCHGS       5.570   0.200   P
NCJLX       5.780   0.200   P
NCHGW       5.920   0.500   P
NCCMJ       6.030   0.100   P
NCHCA       7.060   0.200   P
NCCCY       8.540   0.200   P
# 1993  1 10 22 13  9.45  37.2915 -121.6703    3.40 1.20  0.23  0.36  0.03     331635
NCCCO       1.460  -1.000   P
NCCMH       2.600   0.500   P
NCCAO       2.750  -0.500   P
NCCAO       4.920   0.200   S
NCCAD       3.500   0.200   P
NCJST       3.350   0.200   P
NCJNA       4.240   0.500   P
NCJCB       4.260   1.000   P
NCCAL       4.230   0.200   P
NCJAL       4.520   0.500   P
NCHSP       4.820   0.200   P
NCJHL       5.050   1.000   P
NCJRR       5.320   0.500   P
NCJSS       5.400   0.500   P
NCHGS       5.570   0.500   P
NCJLX       5.880   0.500   P
NCHGW       5.910   0.200   P
NCHCA       7.070   0.500   P
NCCCY       8.550   0.500   P
# 1993  6  8  9 15  1.38  37.2893 -121.6673    3.47 0.83  0.34  0.46  0.03     352620
NCCCO       1.430  -1.000   P
NCCMH       2.690  -0.500   P
NCCAO       2.720  -0.500   P
NCJST       3.350   0.500   P
NCJCB       4.210   1.000   P
NCCML       4.310   0.200   P
NCCAL       4.260   0.200   P
NCHSP       4.740  -1.000   P
NCJHL       5.040   0.500   P
NCJRR       5.270   1.000   P
# 1993 12  1  0 25 49.53  37.2930 -121.6707    4.14 0.98  0.20  1.58  0.03   30036393
NCCCO       1.490   0.100   P
NCCMH       2.580  -0.500   P
NCCAO       2.740  -1.000   P
NCCAO       4.880   0.200   S
NCJST       3.360   0.200   P
NCCAD       3.510   0.100   P
NCJNA       4.230   0.500   P
NCJCB       4.250   1.000   P
NCCML       4.250   0.500   P
NCCAL       4.200   0.200   P
NCJAL       4.470   0.500   P
NCHSP       4.800  -1.000   P
NCJHL       5.030   0.200   P
NCJRR       5.300   0.500   P
NCJLX       5.810   0.500   P
NCCDV       5.920   0.200   P
NCHGW       5.890   0.200   P
# 1993 12 20 22 35  7.79  37.2892 -121.6690    3.48 1.77  0.12  0.29  0.03     389286
NCCCO       1.430  -1.000   P
NCCMH       2.680   0.500   P
NCCAO       2.740   1.000   P
NCCAO       4.910   0.100   S
NCJST       3.300   1.000   P
NCJCB       4.220   1.000   P
NCJNA       4.230   0.200   P
NCCAL       4.280   1.000   P
NCCAL       7.740   0.100   S
NCJAL       4.480   1.000   P
NCHSP       4.760   1.000   P
NCCMM       4.810   1.000   P
NCJHL       5.060   1.000   P
NCJRR       5.300   1.000   P
NCJSS       5.340   0.200   P
NCHGS       5.530   1.000   P
NCJEC       5.890   0.200   P
NCJLX       5.860   0.500   P
NCHGW       5.890   1.000   P
NCCDV       6.030   1.000   P
NCCMJ       6.150   0.200   P
NCJBZ       5.700   0.100   P
NCHCA       6.970   0.200   P
NCJSG       7.050   0.200   P
NCCMR       6.550   1.000   P
NCJTG       6.980   0.100   P
NCCVA       7.340   0.500   P
NCHCR       7.130   0.500   P
NCJSJ       7.650   0.200   P
NCJRG       7.280   0.100   P
NCHCB       7.760   0.100   P
NCJSC       7.690   0.200   P
NCHFE       7.690   0.100   P
NCCST       8.280   0.200   P
NCHPL       7.800   0.500   P
NCJBM       8.150   0.200   P
NCCNI       8.290   0.200   P
NCJSM       8.660   0.200   P
NCHAZ       8.900   0.100   P
NCJUC       8.800   0.100   P
NCJSF       8.500   0.100   P
NCCCY       8.470   0.200   P
NCJBL       8.870   0.500   P
NCJPP       9.340   0.100   P
NCHDL       9.570   0.200   P
NCJPS       8.940   0.100   P
NCHFP      11.620   0.500   P
NCBVY      12.310   0.100   P
NCBSR      12.710   0.500   P
# 1994  4  6  4 11 34.96  37.2902 -121.6707    3.46 1.38  0.22  0.46  0.03     399980
NCCCO       1.430  -1.000   P
NCCMH       2.620   0.500   P
NCCAO       2.750   1.000   P
NCCAD       3.470   0.500   P
NCJST       3.310   0.200   P
NCJCB       4.240   1.000   P
NCJNA       4.220   0.200   P
NCCML       4.320   1.000   P
NCCAL       4.250   1.000   P
NCJAL       4.470   1.000   P
NCHSP       4.790   1.000   P
NCCMM       4.790   1.000   P
NCJHL       5.060   1.000   P
NCJRR       5.320   1.000   P
NCJSS       5.380   0.200   P
NCJEC       5.900   0.500   P
NCHGW       5.900   0.500   P
NCCDV       5.980   0.500   P
NCCMJ       6.110   0.500   P
NCCMR       6.520   1.000   P
NCJBC       6.920   0.500   P
NCHCR       7.140   1.000   P
NCCCY       8.610   0.200   P
# 1994 11 16 16 50 58.15  37.2898 -121.6702    3.58 2.01  0.12  0.32  0.03   30062741
NCCCO       1.440  -1.000   P
NCCMH       2.630   1.000   P
NCCAO       2.740   1.000   P
NCCAO       4.910   0.100   S
NCCAD       3.430   0.500   P
NCJST       3.310   0.500   P
NCJCB       4.220   1.000   P
NCJNA       4.190   0.500   P
NCCML       4.300   1.000   P
NCCAL       4.260   1.000   P
NCJAL       4.480   0.500   P
NCHSP       4.790   1.000   P
NCCMM       4.810   1.000   P
NCJHL       5.070   1.000   P
NCJUM       5.110   0.200   P
NCJRR       5.320   1.000   P
NCJSS       5.420   0.200   P
NCHGS       5.560   1.000   P
NCJEC       5.890   0.500   P
NCJLX       5.760   0.500   P
NCCDV       6.020   1.000   P
NCCMJ       5.980   0.200   P
NCCMP       6.020   1.000   P
NCJBZ       6.710   0.100   P
NCHCA       6.630   0.100   P
NCJSG       7.050   0.200   P
NCJTG       6.950   0.200   P
NCJBC       6.910   0.200   P
NCCOS       6.720   0.100   P
NCHCR       7.150   0.500   P
NCHCB       7.510   0.100   P
NCCVL       8.050   0.100   P
NCJSC       7.600   0.200   P
NCHFE       7.590   0.100   P
NCCST       8.290   0.500   P
NCHPL       7.800   0.500   P
NCJBM       8.170   1.000   P
NCHOR       8.690   0.200   P
NCCNI       8.250   0.100   P
NCJBL       8.910   0.200   P
NCJPP       9.360   0.500   P
NCHDL       9.540   1.000   P
NCHJG      10.420   0.500   P
NCHFP      11.650   0.500   P
NCBSR      12.830   0.200   P
# 1994 11 16 18  3 42.37  37.2903 -121.6692    3.46 1.27  0.22  0.39  0.03   30062748
NCCCO       1.440  -1.000   P
NCCMH       2.630   0.200   P
NCCAO       2.730   1.000   P
NCCAO       4.890   0.200   S
NCCAD       3.420   0.200   P
NCJST       3.340   0.500   P
NCJCB       4.230   1.000   P
NCJNA       4.180   0.200   P
NCCML       4.290   1.000   P
NCCAL       4.250   0.500   P
NCJAL       4.470   0.200   P
NCHSP       4.760   0.200   P
NCCMM       4.780   1.000   P
NCJHL       5.040   1.000   P
NCJRR       5.300   0.200   P
NCJEC       5.830   0.100   P
NCJLX       5.830   0.500   P
NCHGW       5.880   0.500   P
NCCDV       5.980   0.500   P
NCCMP       5.990   0.500   P
NCHCA       7.000   0.200   P
NCCCY       8.550   0.500   P
# 1995  3  3  9 38 49.20  37.2890 -121.6688    3.64 1.20  0.18  0.62  0.03   30069218
NCCCO       1.450  -0.500   P
NCCMH       2.680   0.200   P
NCCAO       2.750  -1.000   P
NCCAO       4.900   0.200   S
NCCAD       3.430   0.200   P
NCJST       3.320   0.200   P
NCJCB       4.210   1.000   P
NCJNA       4.200   0.200   P
NCCML       4.330   1.000   P
NCCAL       4.290   1.000   P
NCCAL       7.770   0.200   S
NCJAL       4.430   0.100   P
NCHSP       4.740   1.000   P
NCJHL       5.040   1.000   P
NCJRR       5.280   1.000   P
NCJSS       5.450   0.200   P
NCHGS       5.320   0.100   P
NCJEC       5.860   0.500   P
NCJLX       5.840   0.500   P
NCHGW       5.760   0.200   P
NCCDV       6.010   1.000   P
NCCMJ       6.190   0.200   P
NCJBZ       6.610   0.100   P
NCJSG       7.010   0.500   P
NCCCY       8.580   0.500   P
# 1995  3  3 12 30 15.85  37.2885 -121.6695    3.82 1.75  0.10  0.26  0.04   30069222
NCCCO       1.440  -1.000   P
NCCMH       2.660   0.500   P
NCCAO       2.760   1.000   P
NCCAO       4.900   0.200   S
NCCAD       3.430   0.500   P
NCJST       3.320   0.500   P
NCJCB       4.220   1.000   P
NCJNA       4.200   0.500   P
NCCML       4.330   1.000   P
NCCAL       4.290   1.000   P
NCCAL       7.740   0.200   S
NCJAL       4.470   0.500   P
NCHSP       4.750   1.000   P
NCCMM       4.800   1.000   P
NCJHL       5.050   1.000   P
NCJRR       5.290   1.000   P
NCJSS       5.390   0.500   P
NCHGS       5.510   1.000   P
NCJEC       5.850   0.500   P
NCJLX       5.810   0.200   P
NCHGW       5.860   1.000   P
NCCDV       6.000   1.000   P
NCCMJ       6.110   0.200   P
NCJBZ       6.730   1.000   P
NCHCA       7.020   0.500   P
NCJSG       7.020   0.500   P
NCCMR       6.530   0.500   P
NCJTG       7.790   0.100   P
NCCVA       7.310   0.500   P
NCHCR       7.110   1.000   P
NCJSJ       7.620   0.200   P
NCCMN       7.310   0.200   P
NCJRG       7.290   0.100   P
NCHCB       7.740   0.200   P
NCJSC       7.650   0.200   P
NCHFE       7.740   0.200   P
NCCST       8.290   0.500   P
NCHPL       7.780   0.500   P
NCJBM       8.140   0.500   P
NCHOR       8.320   0.100   P
NCCNI       8.390   1.000   P
NCHCO       8.730   0.200   P
NCJSM       8.650   0.500   P
NCHAZ       8.890   0.200   P
NCJUC       8.740   0.200   P
NCJSF       8.700   0.500   P
NCCCY       8.590   0.200   P
NCJBL       9.210   0.200   P
NCJPP       9.190   0.200   P
NCHBT      10.010   0.200   P
NCCGP       9.430   0.500   P
NCHDL       9.460   0.200   P
NCHJG      10.270   0.200   P
NCHLT      10.100   0.200   P
NCJHP      10.570   0.500   P
NCJBG      11.000   0.200   P
NCHSL      10.840   0.100   P
NCCLC      11.360   0.200   P
NCJPS      11.110   0.100   P
NCHFP      11.490   0.200   P
NCBVY      12.190   0.200   P
NCBSR      12.780   0.200   P
NCJSA      12.790   0.200   P
NCBPC      14.310   0.500   P
NCJMG      14.410   0.500   P
NCBJO      14.680   0.500   P
NCBJC      15.140   0.500   P
NCBVL      16.280   0.200   P
NCCAI      16.090   0.100   P
NCBPR      16.980   0.200   P
NCBPI      17.120   0.100   P
NCBSM      17.900   0.200   P
NCNHF      19.430   0.200   P
NCBPO      20.160   0.100   P
NCNLN      22.490   0.200   P
NCALN      26.950   0.500   P
# 1995  3  7 13 19 41.96  37.2893 -121.6687    3.29 1.26  0.19  0.29  0.04   30069457
NCCCO       1.420  -1.000   P
NCCMH       2.630   0.500   P
NCCAO       2.740  -1.000   P
NCCAO       4.910   0.100   S
NCCAD       3.390   0.500   P
NCJST       3.340   0.500   P
NCJCB       4.230   1.000   P
NCJNA       4.210   0.200   P
NCCML       4.350  -1.000   P
NCCAL       4.310   0.500   P
NCCAL       7.020   0.100   S
NCJAL       4.420   0.500   P
NCHSP       4.760   0.500   P
NCJHL       5.060   0.500   P
NCJRR       5.290   0.500   P
NCJSS       5.370   0.200   P
NCHGS       5.540   0.200   P
NCJEC       5.900   0.100   P
NCJLX       5.800   0.100   P
NCHGW       5.890   0.500   P
NCCDV       6.040   0.200   P
NCCMJ       6.210   0.100   P
NCJSG       7.040   0.100   P
NCHCR       7.140   0.100   P
NCJBM       8.050   0.100   P
NCCCY       8.620   0.100   P
NCJPP       9.160   0.200   P
# 1995  5 14 11 18 47.00  37.2927 -121.6718    3.50 1.02  0.24  0.58  0.03   30073191
NCCCO       1.490  -0.500   P
NCCMH       2.600   0.200   P
NCCAO       2.760  -1.000   P
NCCAO       4.930   0.200   S
NCJST       3.280   0.200   P
NCCAD       3.580   0.200   P
NCJNA       4.250   0.200   P
NCJCB       4.270   1.000   P
NCCML       4.270   0.500   P
NCCAL       4.220   0.500   P
NCJAL       4.480   0.500   P
NCJHL       5.070   1.000   P
NCJSS       5.320   0.200   P
NCJRR       5.330   0.500   P
NCJLX       5.840   0.200   P
NCCDV       5.940   0.200   P
NCHGW       5.930   0.500   P
NCJBC       6.900   0.100   P
NCCCY       8.520   0.200   P
