# 1984  4 25  4 35 19.17  37.2883 -121.6688    3.73 1.90  0.10  0.29  0.04      17842
NCCCO       1.430  -1.000   P
# 1984  4 27  7 48 23.50  37.2942 -121.6720    3.16 0.97  0.23  0.44  0.04      16751
NCCCO       1.460  -1.000   P
# 1984  6 27 14 50 38.14  37.2913 -121.6708    3.61 1.59  0.17  0.37  0.02      21644
NCCCO       1.470  -1.000   P
# 1984  7  7  0 17  9.97  37.2907 -121.6722    3.91 2.67  0.11  0.33  0.06      22271
NCCCO       1.470  -1.000   P
# 1984  7  7  2 35  4.06  37.2903 -121.6708    3.34 1.53  0.29  0.37  0.02      22280
NCCCO       1.430  -1.000   P
# 1984  7 17 16 24 49.44  37.2900 -121.6703    3.62 1.85  0.11  0.29  0.04      23190
NCCCO       1.440  -1.000   P
# 1984  8  7  9  7  6.33  37.2907 -121.6712    3.34 1.17  0.19  0.35  0.03      25096
NCCCO       1.430  -1.000   P
# 1984 11 18  0 28 55.24  37.2890 -121.6703    3.42 1.69  0.15  0.39  0.04      32049
NCCCO       1.430  -1.000   P
# 1984 12 22  4 43 44.71  37.2908 -121.6708    3.71 1.60  0.16  0.47  0.03      35109
NCCCO       1.460  -1.000   P
# 1985  2 28  1  9 58.30  37.2885 -121.6705    3.49 0.84  0.23  0.33  0.03      42349
NCCCO       1.420  -1.000   P
# 1985  3  2  6 53 56.01  37.2887 -121.6688    3.67 1.74  0.15  0.40  0.04      42555
NCCCO       1.440  -1.000   P
# 1985  3  2  8 55  3.47  37.2898 -121.6702    3.58 1.91  0.11  0.35  0.04      42559
NCCCO       1.440  -1.000   P
# 1985  3  2  8 55 29.59  37.2892 -121.6690    3.51 2.08  0.14  0.41  0.03      42643
NCCCO       1.430  -1.000   P
# 1985  3  2  8 58  0.48  37.2903 -121.6703    3.43 1.22  0.21  0.43  0.03      42560
NCCCO       1.440  -1.000   P
# 1985  6 15  1 38 57.38  37.2933 -121.6708    3.42 0.94  0.25  0.74  0.03      49626
NCCCO       1.490  -0.500   P
# 1985  8 28 20 35 10.10  37.2892 -121.6702    3.53 1.58  0.17  0.45  0.03      54084
NCCCO       1.440  -1.000   P
# 1985 10 28  3 55 38.13  37.2907 -121.6715    3.30 1.31  0.17  0.32  0.03      57770
NCCCO       1.440  -1.000   P
# 1985 12 31 15 50 52.23  37.2888 -121.6695    3.40 1.74  0.11  0.25  0.05      62514
NCCCO       1.430  -1.000   P
# 1985 12 31 18  3  3.48  37.2895 -121.6707    3.32 1.62  0.13  0.52  0.05      62520
NCCCO       1.430   0.500   P
# 1986  3  8 10 32  4.41  37.2917 -121.6707    3.59 1.63  0.16  0.45  0.04      67820
# 1986  6  1 10 51 31.46  37.2892 -121.6698    3.23 1.21  0.18  0.39  0.03      73786
NCCCO       1.400  -1.000   P
# 1986  7 25  9 22 50.29  37.2893 -121.6712    3.86 2.26  0.11  0.34  0.05      77218
NCCCO       1.440  -1.000   P
# 1986  7 25 16  1 52.10  37.2923 -121.6720    3.33 1.15  0.24  0.49  0.08      77296
NCCCO       1.430  -1.000   P
# 1986  9  2  7 24 15.87  37.2920 -121.6722    3.53 0.83  0.20  0.53  0.04      81017
NCCCO       1.500  -1.000   P
NCCSC       2.600   1.000   P
NCCMH       2.610   0.200   P
NCCAD       3.530   0.100   P
NCJCB       4.290   1.000   P
NCJAL       4.480   0.500   P
NCHSP       4.840   1.000   P
NCJHL       5.090   1.000   P
NCJRR       5.340   1.000   P
# 1986  9 15 20 17 49.93  37.2905 -121.6725    4.27 2.67  0.10  0.29  0.05      82606
NCCCO       1.480   1.000   P
NCCSC       2.600   1.000   P
NCCMH       2.600   1.000   P
NCJST       3.320   1.000   P
NCCAD       3.490   1.000   P
NCJCB       4.260   1.000   P
NCJAL       4.490   1.000   P
NCHSP       4.810   1.000   P
NCJHL       5.070   1.000   P
NCJRR       5.340   1.000   P
# 1986  9 25 12  1 52.83  37.2907 -121.6700    3.60 1.36  0.15  0.42  0.03      83805
NCCCO       1.460  -1.000   P
NCCSC       2.620   0.200   P
NCCMH       2.610   1.000   P
NCCAD       3.480   0.100   P
NCJST       3.340   1.000   P
NCJCB       4.250   1.000   P
NCJAL       4.480   1.000   P
NCHSP       4.800   1.000   P
NCJHL       5.060   1.000   P
NCJRR       5.320   1.000   P
# 1986 11 25 13  0 35.66  37.2922 -121.6702    4.32 1.01  0.20  1.60  0.02      88698
NCCCO       1.560   0.100   P
NCCSC       2.600   0.100   P
NCCMH       2.620   0.100   P
NCJST       3.340   0.100   P
NCJST       5.990   0.200   S
NCCAD       3.500   0.100   P
NCJCB       4.230   1.000   P
NCHSP       4.790   1.000   P
NCJHL       5.060   0.100   P
NCJRR       5.310   1.000   P
# 1987  6  3  6 56  7.74  37.2893 -121.6702    4.08 1.92  0.09  0.30  0.05     101361
NCCCO       1.450  -1.000   P
NCCSC       2.640   1.000   P
NCCMH       2.650   1.000   P
NCCAD       3.470   1.000   P
NCJST       3.350   1.000   P
NCJCB       4.240   1.000   P
NCJAL       4.480   1.000   P
NCHSP       4.770   1.000   P
NCJRR       5.310   1.000   P
# 1987  6  3  6 58 51.32  37.2887 -121.6702    3.79 1.74  0.10  0.34  0.04     101362
NCCCO       1.440  -1.000   P
NCCSC       2.650   1.000   P
NCCMH       2.670   1.000   P
NCCAD       3.450   1.000   P
NCJST       3.300   1.000   P
NCJCB       4.230   1.000   P
NCJAL       4.500   1.000   P
NCJAL       7.950   0.100   S
NCHSP       4.770   1.000   P
NCJRR       5.310   1.000   P
# 1987  7 14 19  2 57.02  37.2890 -121.6695    3.60 1.72  0.13  0.34  0.04     103138
NCCCO       1.440  -1.000   P
NCCSC       2.660   1.000   P
NCCMH       2.660   1.000   P
NCCAD       3.470   0.100   P
NCJST       3.330   1.000   P
NCJCB       4.230   1.000   P
NCJAL       4.490   1.000   P
NCHSP       4.780   1.000   P
NCJRR       5.300   1.000   P
# 1988  1 15  1 56 42.31  37.2913 -121.6727    3.20 1.39  0.17  0.40  0.04     110939
NCCCO       1.430  -1.000   P
NCCSC       2.610   1.000   P
NCCMH       2.610   1.000   P
NCJST       3.320   0.500   P
NCCAD       3.610   0.500   P
NCJCB       4.250   1.000   P
NCJAL       4.480   1.000   P
NCHSP       4.810   1.000   P
NCJHL       5.080   1.000   P
NCJRR       5.310   1.000   P
# 1988  2 25 10  0 17.78  37.2920 -121.6723    4.24 0.92  0.19  0.45  0.03     112868
NCCCO       1.570  -1.000   P
NCCSC       2.590   0.500   P
NCCMH       2.590   0.500   P
NCJST       3.330   0.500   P
NCCAD       3.530   0.200   P
NCJCB       4.240   1.000   P
NCJAL       4.470   1.000   P
NCHSP       4.800   1.000   P
NCJHL       5.050   1.000   P
NCJRR       5.310   1.000   P
# 1988  7 23 10 42 21.74  37.2907 -121.6717    3.67 1.53  0.15  0.34  0.03     120788
NCCCO       1.470  -1.000   P
NCCSC       2.620   0.500   P
NCCMH       2.630   1.000   P
NCJST       3.280   0.200   P
NCCAD       3.480   1.000   P
NCJCB       4.270   0.500   P
NCHSP       4.810   1.000   P
NCJHL       5.070   1.000   P
NCJRR       5.320   1.000   P
# 1988 11  2  3  9 12.61  37.2893 -121.6705    3.87 1.93  0.10  0.26  0.05     126189
NCCCO       1.460  -1.000   P
NCCSC       2.640   0.500   P
NCCMH       2.670   1.000   P
NCCAD       3.470   0.500   P
NCJST       3.330   0.500   P
NCJCB       4.240   0.500   P
NCJAL       3.950   0.200   P
NCHSP       4.790   1.000   P
NCJHL       5.070   1.000   P
NCJRR       5.310   1.000   P
# 1988 11  3  1 30  4.28  37.2888 -121.6697    3.64 1.71  0.13  0.31  0.03     126292
NCCCO       1.430  -1.000   P
NCCSC       2.660   0.500   P
NCCMH       2.650   0.500   P
NCCAD       3.450   0.500   P
NCJST       3.330   0.500   P
NCJCB       4.230   1.000   P
NCJAL       4.490   1.000   P
NCHSP       4.770   1.000   P
NCJHL       5.070   1.000   P
NCJRR       5.300   1.000   P
# 1988 11  4 13 34 34.72  37.2882 -121.6703    4.06 1.87  0.10  0.30  0.05     126389
NCCCO       1.430  -1.000   P
NCCSC       2.650   1.000   P
NCCMH       2.670   1.000   P
NCCAD       3.450   1.000   P
NCJST       3.320   1.000   P
NCJCB       4.210   1.000   P
NCJAL       4.470   0.500   P
NCHSP       4.760   1.000   P
NCJHL       5.050   1.000   P
NCJRR       5.280   1.000   P
# 1989 12 13  5 33 46.08  37.2875 -121.6682    3.81 1.60  0.15  0.51  0.06     148939
NCCCO       1.410   0.500   P
NCCSC       2.630   0.500   P
NCCMH       2.640   0.500   P
NCCAD       3.440   1.000   P
NCJST       3.300   0.500   P
NCJCB       4.200   1.000   P
NCJAL       4.440   0.200   P
NCHSP       4.730   1.000   P
NCJHL       5.040   1.000   P
NCJRR       5.280   1.000   P
# 1990  5 23 11 11 37.58  37.2922 -121.6722    3.48 1.03  0.21  0.71  0.03     158154
NCCCO       1.490  -0.500   P
NCCSC       2.620   0.500   P
NCCMH       2.590   0.500   P
NCJST       3.340   0.500   P
NCCAD       3.580   0.200   P
NCJCB       4.260   1.000   P
NCJAL       4.460   1.000   P
NCHSP       4.820   1.000   P
NCJHL       5.060   1.000   P
NCJRR       5.280   0.200   P
# 1990  7  5 20  4 42.81  37.2902 -121.6693    3.72 1.71  0.13  0.38  0.04     160503
NCCCO       1.450  -1.000   P
NCCSC       2.640   0.200   P
NCCMH       2.640   0.500   P
NCCAD       3.450   1.000   P
NCJST       3.370   1.000   P
NCJCB       4.230   1.000   P
NCJAL       4.470   1.000   P
NCHSP       4.770   1.000   P
NCJHL       5.050   1.000   P
NCJRR       5.350   1.000   P
# 1991  1 20  5  0 30.93  37.2908 -121.6705    3.35 1.17  0.22  0.33  0.04     205031
NCCCO       1.440  -1.000   P
NCCSC       2.640   0.500   P
NCCMH       2.630  -1.000   P
NCCAD       3.480   0.500   P
NCJST       3.350   0.500   P
NCJCB       4.260   1.000   P
NCHSP       4.800   0.500   P
NCJRR       5.330   1.000   P
# 1991  5 29  9 45 22.62  37.2885 -121.6700    3.82 1.83  0.11  0.30  0.04     215747
NCCCO       1.420  -1.000   P
NCCSC       2.660   0.200   P
NCCMH       2.660   0.500   P
NCCAD       3.420   1.000   P
NCJST       3.300   1.000   P
NCJCB       4.210   1.000   P
NCJAL       4.460   0.500   P
NCHSP       4.740   1.000   P
NCJHL       5.040   1.000   P
NCJRR       5.280   1.000   P
# 1991  8 10 17  6  5.75  37.2905 -121.6698    3.42 1.23  0.23  0.37  0.03     227435
NCCCO       1.430  -1.000   P
NCCSC       2.750   0.200   P
NCCMH       2.630   0.200   P
NCCAD       3.470   0.500   P
NCJST       3.370   0.500   P
NCJCB       4.240   1.000   P
NCJAL       4.460   0.500   P
NCHSP       4.790   0.500   P
NCJHL       5.050   1.000   P
NCJRR       5.310   1.000   P
# 1991 12  3  5 24 24.98  37.2898 -121.6705    3.64 2.01  0.12  0.29  0.04     238704
NCCCO       1.450  -1.000   P
NCCSC       2.640   1.000   P
NCCMH       2.650   1.000   P
NCCAD       3.460   1.000   P
NCJST       3.340   1.000   P
NCJCB       4.240   1.000   P
NCJAL       4.490   0.500   P
NCHSP       4.770   1.000   P
NCJHL       5.060   1.000   P
NCJRR       5.310   1.000   P
# 1991 12  4  0  8 49.55  37.2892 -121.6698    3.77 1.89  0.12  0.28  0.04     238790
NCCCO       1.440  -1.000   P
NCCSC       2.650   1.000   P
NCCMH       2.650   1.000   P
NCCAD       3.450   1.000   P
NCJST       3.330   1.000   P
NCJCB       4.220   1.000   P
NCJAL       4.470   0.500   P
NCHSP       4.760   1.000   P
NCJHL       5.050   1.000   P
NCJRR       5.290   1.000   P
# 1992  4  6  9 39 49.41  37.2910 -121.6700    2.97 0.92  0.23  1.09  0.04     261841
NCCCO       1.490   0.100   P
NCCMH       2.600  -0.500   P
NCCAD       3.600   0.100   P
NCJST       3.330   0.500   P
NCJCB       4.280   1.000   P
NCJAL       4.500   0.200   P
NCHSP       4.820   1.000   P
NCJHL       5.080   1.000   P
NCJRR       5.330   1.000   P
# 1992  8 29 17  4 29.02  37.2893 -121.6670    3.37 1.64  0.19  0.44  0.06     312743
NCCCO       1.450  -1.000   P
NCCMH       2.600   0.500   P
NCCAD       3.480   0.200   P
NCJST       3.300   1.000   P
NCJCB       4.230   1.000   P
NCJAL       4.440   0.500   P
NCHSP       4.780   1.000   P
NCJHL       5.040   1.000   P
NCJRR       5.290   1.000   P
# 1992  9 11  1 22 13.65  37.2887 -121.6683    3.76 1.06  0.18  0.65  0.04     314921
NCCCO       1.410  -0.500   P
NCCMH       2.690  -1.000   P
NCCMH       5.000   0.200   S
NCCAD       3.480   0.500   P
NCJST       3.360   0.200   P
NCJST       6.040   0.200   S
NCJCB       4.180   1.000   P
NCJAL       4.440   0.500   P
NCHSP       4.710   1.000   P
NCJHL       5.010   1.000   P
NCJRR       5.260   0.500   P
# 1993  1 10 22 13  9.45  37.2915 -121.6703    3.40 1.20  0.23  0.36  0.03     331635
NCCCO       1.460  -1.000   P
NCCMH       2.600   0.500   P
NCCAD       3.500   0.200   P
NCJST       3.350   0.200   P
NCJCB       4.260   1.000   P
NCJAL       4.520   0.500   P
NCHSP       4.820   0.200   P
NCJHL       5.050   1.000   P
NCJRR       5.320   0.500   P
# 1993 12 20 22 35  7.79  37.2892 -121.6690    3.48 1.77  0.12  0.29  0.03     389286
NCCCO       1.430  -1.000   P
NCCMH       2.680   0.500   P
NCJST       3.300   1.000   P
NCJCB       4.220   1.000   P
NCJAL       4.480   1.000   P
NCHSP       4.760   1.000   P
NCJHL       5.060   1.000   P
NCJRR       5.300   1.000   P
# 1994  4  6  4 11 34.96  37.2902 -121.6707    3.46 1.38  0.22  0.46  0.03     399980
NCCCO       1.430  -1.000   P
NCCMH       2.620   0.500   P
NCCAD       3.470   0.500   P
NCJST       3.310   0.200   P
NCJCB       4.240   1.000   P
NCJAL       4.470   1.000   P
NCHSP       4.790   1.000   P
NCJHL       5.060   1.000   P
NCJRR       5.320   1.000   P
# 1994 11 16 16 50 58.15  37.2898 -121.6702    3.58 2.01  0.12  0.32  0.03   30062741
NCCCO       1.440  -1.000   P
NCCMH       2.630   1.000   P
NCCAD       3.430   0.500   P
NCJST       3.310   0.500   P
NCJCB       4.220   1.000   P
NCJAL       4.480   0.500   P
NCHSP       4.790   1.000   P
NCJHL       5.070   1.000   P
NCJRR       5.320   1.000   P
# 1994 11 16 18  3 42.37  37.2903 -121.6692    3.46 1.27  0.22  0.39  0.03   30062748
NCCCO       1.440  -1.000   P
NCCMH       2.630   0.200   P
NCCAD       3.420   0.200   P
NCJST       3.340   0.500   P
NCJCB       4.230   1.000   P
NCJAL       4.470   0.200   P
NCHSP       4.760   0.200   P
NCJHL       5.040   1.000   P
NCJRR       5.300   0.200   P
# 1995  3  3  9 38 49.20  37.2890 -121.6688    3.64 1.20  0.18  0.62  0.03   30069218
NCCCO       1.450  -0.500   P
NCCMH       2.680   0.200   P
NCCAD       3.430   0.200   P
NCJST       3.320   0.200   P
NCJCB       4.210   1.000   P
NCJAL       4.430   0.100   P
NCHSP       4.740   1.000   P
NCJHL       5.040   1.000   P
NCJRR       5.280   1.000   P
# 1995  3  3 12 30 15.85  37.2885 -121.6695    3.82 1.75  0.10  0.26  0.04   30069222
NCCCO       1.440  -1.000   P
NCCMH       2.660   0.500   P
NCCAD       3.430   0.500   P
NCJST       3.320   0.500   P
NCJCB       4.220   1.000   P
NCJAL       4.470   0.500   P
NCHSP       4.750   1.000   P
NCJHL       5.050   1.000   P
NCJRR       5.290   1.000   P
# 1995  3  7 13 19 41.96  37.2893 -121.6687    3.29 1.26  0.19  0.29  0.04   30069457
NCCCO       1.420  -1.000   P
NCCMH       2.630   0.500   P
NCCAD       3.390   0.500   P
NCJST       3.340   0.500   P
NCJCB       4.230   1.000   P
NCJAL       4.420   0.500   P
NCHSP       4.760   0.500   P
NCJHL       5.060   0.500   P
NCJRR       5.290   0.500   P
# 1995 12 15 18 53 39.81  37.2890 -121.6693    3.71 1.82  0.14  0.42  0.04   30092060
NCCCO       1.430  -1.000   P
NCCMH       2.650   0.500   P
NCCAD       3.430   1.000   P
NCJST       3.310   0.500   P
NCJCB       4.220   1.000   P
NCJAL       4.470   1.000   P
NCHSP       4.760   1.000   P
NCJHL       5.060   1.000   P
NCJRR       5.300   1.000   P
